{
  "type": "FeatureCollection",
  "name": "osm_roads_lalpur_4326",
  "crs": {
    "type": "name",
    "properties": {
      "name": "urn:ogc:def:crs:OGC:1.3:CRS84"
    }
  },
  "features": [
    {
      "type": "Feature",
      "id": "OSM-653919189",
      "geometry": {
        "type": "LineString",
        "coordinates": [
          [
            72.7605259,
            23.0323181
          ],
          [
            72.7603219,
            23.0324048
          ],
          [
            72.7602322,
            23.0324618
          ],
          [
            72.7601571,
            23.032578
          ],
          [
            72.7600355,
            23.0328271
          ],
          [
            72.7600223,
            23.0328797
          ],
          [
            72.7600002,
            23.0329679
          ],
          [
            72.7600042,
            23.0332567
          ],
          [
            72.760029,
            23.033388
          ],
          [
            72.7600801,
            23.033628
          ],
          [
            72.7599943,
            23.0339514
          ],
          [
            72.7598655,
            23.0341637
          ],
          [
            72.7596939,
            23.03445
          ],
          [
            72.7596697,
            23.0347141
          ],
          [
            72.7597073,
            23.0349313
          ],
          [
            72.7598065,
            23.0352645
          ],
          [
            72.7598494,
            23.0354546
          ],
          [
            72.7598709,
            23.0358002
          ],
          [
            72.7599004,
            23.0362716
          ],
          [
            72.7600005,
            23.0367345
          ],
          [
            72.760013,
            23.0367924
          ],
          [
            72.7602839,
            23.0377551
          ],
          [
            72.7604744,
            23.038229
          ],
          [
            72.7608204,
            23.0390114
          ],
          [
            72.760984,
            23.0393422
          ],
          [
            72.7610859,
            23.0396137
          ],
          [
            72.7611146,
            23.0397565
          ],
          [
            72.7611932,
            23.0401468
          ],
          [
            72.7613702,
            23.041297
          ],
          [
            72.7614135,
            23.0414372
          ],
          [
            72.761499,
            23.0417142
          ],
          [
            72.7615526,
            23.0420671
          ],
          [
            72.7616009,
            23.0427064
          ],
          [
            72.7617136,
            23.0431556
          ],
          [
            72.7621052,
            23.0445156
          ],
          [
            72.7623305,
            23.0453153
          ],
          [
            72.7625558,
            23.0458484
          ],
          [
            72.7630225,
            23.0467912
          ],
          [
            72.763339,
            23.0474946
          ],
          [
            72.7635804,
            23.0479364
          ],
          [
            72.7639613,
            23.0485164
          ],
          [
            72.7644199,
            23.0492272
          ],
          [
            72.7644408,
            23.0492676
          ],
          [
            72.7649295,
            23.0502145
          ],
          [
            72.7649617,
            23.0503551
          ],
          [
            72.7649134,
            23.0504884
          ],
          [
            72.7647874,
            23.0507747
          ],
          [
            72.7647176,
            23.0509845
          ],
          [
            72.764723,
            23.0512979
          ],
          [
            72.7647874,
            23.051831
          ],
          [
            72.7648947,
            23.0521223
          ],
          [
            72.7651039,
            23.0525986
          ],
          [
            72.7652004,
            23.0530132
          ],
          [
            72.7652433,
            23.0534575
          ],
          [
            72.765305,
            23.0543509
          ],
          [
            72.7653319,
            23.0548815
          ],
          [
            72.7653835,
            23.0549613
          ],
          [
            72.765407,
            23.0549975
          ],
          [
            72.7654606,
            23.0550222
          ],
          [
            72.765694,
            23.0550172
          ],
          [
            72.7659273,
            23.0549999
          ],
          [
            72.7660722,
            23.0550148
          ],
          [
            72.7662224,
            23.0550641
          ],
          [
            72.7663028,
            23.0551382
          ],
          [
            72.766394,
            23.055422
          ],
          [
            72.7665161,
            23.0557157
          ],
          [
            72.7666046,
            23.0558539
          ],
          [
            72.7666837,
            23.0559205
          ],
          [
            72.7669318,
            23.0561389
          ],
          [
            72.767373,
            23.0565498
          ],
          [
            72.7675997,
            23.0567744
          ],
          [
            72.7678518,
            23.0570101
          ],
          [
            72.7681455,
            23.057247
          ],
          [
            72.7683279,
            23.0573643
          ],
          [
            72.7684285,
            23.0574371
          ],
          [
            72.768466,
            23.0575234
          ],
          [
            72.76858,
            23.0580318
          ],
          [
            72.7686591,
            23.0584403
          ],
          [
            72.7687168,
            23.0586315
          ],
          [
            72.7688228,
            23.0588425
          ],
          [
            72.7688898,
            23.058924
          ],
          [
            72.7690105,
            23.058982
          ],
          [
            72.7691326,
            23.0590091
          ],
          [
            72.7699319,
            23.0588808
          ],
          [
            72.7706105,
            23.0587685
          ],
          [
            72.7712636,
            23.0586525
          ],
          [
            72.7715854,
            23.05865
          ],
          [
            72.7719502,
            23.0587117
          ],
          [
            72.7723056,
            23.0587747
          ],
          [
            72.7726275,
            23.0587932
          ],
          [
            72.7729574,
            23.0588055
          ],
          [
            72.7734067,
            23.058829
          ],
          [
            72.7738385,
            23.0588487
          ],
          [
            72.774273,
            23.0588647
          ],
          [
            72.7750066,
            23.0588191
          ],
          [
            72.7754103,
            23.0587845
          ],
          [
            72.7758595,
            23.0587673
          ],
          [
            72.7761184,
            23.0587512
          ],
          [
            72.7762954,
            23.0587759
          ],
          [
            72.776463,
            23.0588129
          ],
          [
            72.7765998,
            23.0588734
          ],
          [
            72.7767768,
            23.0589906
          ],
          [
            72.7770209,
            23.0592263
          ],
          [
            72.777151,
            23.0595089
          ],
          [
            72.7774769,
            23.0602233
          ],
          [
            72.7776217,
            23.0605712
          ],
          [
            72.7776915,
            23.0607391
          ],
          [
            72.7779034,
            23.0612191
          ],
          [
            72.7779677,
            23.0612845
          ],
          [
            72.7780844,
            23.0613339
          ],
          [
            72.7781957,
            23.0613832
          ],
          [
            72.7782655,
            23.0614918
          ],
          [
            72.7783298,
            23.061746
          ],
          [
            72.7783714,
            23.0619607
          ],
          [
            72.7787188,
            23.0618682
          ],
          [
            72.7790487,
            23.061846
          ],
          [
            72.7792767,
            23.0619299
          ],
          [
            72.7794939,
            23.0621298
          ],
          [
            72.7795054,
            23.0621437
          ],
          [
            72.7796307,
            23.0622951
          ],
          [
            72.7796575,
            23.0625937
          ],
          [
            72.7798533,
            23.0642077
          ],
          [
            72.7799982,
            23.0652935
          ],
          [
            72.7801564,
            23.0657081
          ],
          [
            72.7802235,
            23.0660289
          ],
          [
            72.7802181,
            23.0663596
          ],
          [
            72.780253,
            23.0671369
          ],
          [
            72.7802986,
            23.0673886
          ],
          [
            72.7804112,
            23.0675342
          ],
          [
            72.780489,
            23.0675787
          ],
          [
            72.7806017,
            23.0675959
          ],
          [
            72.7808592,
            23.0675787
          ],
          [
            72.7810416,
            23.0675614
          ],
          [
            72.7811784,
            23.0675663
          ],
          [
            72.7812776,
            23.0676305
          ],
          [
            72.7813259,
            23.0676897
          ],
          [
            72.7813822,
            23.0681018
          ],
          [
            72.781519,
            23.0688495
          ],
          [
            72.7816156,
            23.0693135
          ],
          [
            72.7816694,
            23.0695447
          ]
        ]
      },
      "properties": {
        "osm_id": "653919189",
        "road_id": "OSM-653919189",
        "feature_type": "road",
        "highway": "primary",
        "name": "",
        "ref": "SH144",
        "surface": "paved",
        "source": "osm",
        "source_date": "2026-09-28",
        "license": "ODbL 1.0 (OpenStreetMap contributors)",
        "attribution": "\u00a9 OpenStreetMap contributors",
        "review_status": "unverified"
      }
    },
    {
      "type": "Feature",
      "id": "OSM-668421750",
      "geometry": {
        "type": "LineString",
        "coordinates": [
          [
            72.7614135,
            23.0414372
          ],
          [
            72.7611884,
            23.0415001
          ],
          [
            72.7600337,
            23.0414714
          ],
          [
            72.7588041,
            23.0413106
          ],
          [
            72.7583485,
            23.0413881
          ],
          [
            72.7579865,
            23.0413709
          ],
          [
            72.7575027,
            23.041256
          ],
          [
            72.7571684,
            23.0410749
          ],
          [
            72.7570627,
            23.0410176
          ],
          [
            72.7567631,
            23.0407305
          ],
          [
            72.7566289,
            23.0405294
          ],
          [
            72.7564671,
            23.0404637
          ],
          [
            72.7563106,
            23.0404002
          ],
          [
            72.7557901,
            23.040275
          ],
          [
            72.7554274,
            23.0401877
          ],
          [
            72.7546129,
            23.0399321
          ],
          [
            72.7543257,
            23.0397167
          ],
          [
            72.7541104,
            23.0396564
          ],
          [
            72.7536048,
            23.0396593
          ],
          [
            72.7531865,
            23.0396023
          ],
          [
            72.7530774,
            23.0395875
          ],
          [
            72.7525313,
            23.0396219
          ],
          [
            72.7520881,
            23.0395559
          ],
          [
            72.7520101,
            23.0394783
          ],
          [
            72.7519883,
            23.0392773
          ],
          [
            72.7518821,
            23.0391883
          ],
          [
            72.7516668,
            23.0391222
          ],
          [
            72.7503654,
            23.0389528
          ],
          [
            72.7497257,
            23.0387201
          ],
          [
            72.7489611,
            23.0384789
          ],
          [
            72.7485273,
            23.038387
          ],
          [
            72.7479655,
            23.0381659
          ],
          [
            72.7477034,
            23.0381687
          ],
          [
            72.7474724,
            23.0382262
          ],
          [
            72.7471855,
            23.0384335
          ]
        ]
      },
      "properties": {
        "osm_id": "668421750",
        "road_id": "OSM-668421750",
        "feature_type": "road",
        "highway": "tertiary",
        "name": "",
        "ref": "",
        "surface": "paved",
        "source": "osm",
        "source_date": "2026-09-28",
        "license": "ODbL 1.0 (OpenStreetMap contributors)",
        "attribution": "\u00a9 OpenStreetMap contributors",
        "review_status": "unverified"
      }
    },
    {
      "type": "Feature",
      "id": "OSM-1306611452",
      "geometry": {
        "type": "LineString",
        "coordinates": [
          [
            72.7566723,
            23.0394393
          ],
          [
            72.7564671,
            23.0404637
          ]
        ]
      },
      "properties": {
        "osm_id": "1306611452",
        "road_id": "OSM-1306611452",
        "feature_type": "road",
        "highway": "residential",
        "name": "",
        "ref": "",
        "surface": "unpaved",
        "source": "osm",
        "source_date": "2026-09-28",
        "license": "ODbL 1.0 (OpenStreetMap contributors)",
        "attribution": "\u00a9 OpenStreetMap contributors",
        "review_status": "unverified"
      }
    },
    {
      "type": "Feature",
      "id": "OSM-1306611453",
      "geometry": {
        "type": "LineString",
        "coordinates": [
          [
            72.7560787,
            23.0392952
          ],
          [
            72.7557901,
            23.040275
          ]
        ]
      },
      "properties": {
        "osm_id": "1306611453",
        "road_id": "OSM-1306611453",
        "feature_type": "road",
        "highway": "residential",
        "name": "",
        "ref": "",
        "surface": "unpaved",
        "source": "osm",
        "source_date": "2026-09-28",
        "license": "ODbL 1.0 (OpenStreetMap contributors)",
        "attribution": "\u00a9 OpenStreetMap contributors",
        "review_status": "unverified"
      }
    },
    {
      "type": "Feature",
      "id": "OSM-1313540372",
      "geometry": {
        "type": "LineString",
        "coordinates": [
          [
            72.7556964,
            23.0457278
          ],
          [
            72.7557484,
            23.045389
          ],
          [
            72.7558299,
            23.0449932
          ],
          [
            72.7558829,
            23.0446631
          ],
          [
            72.7559543,
            23.044333
          ],
          [
            72.755993,
            23.0441154
          ],
          [
            72.7560806,
            23.0438715
          ],
          [
            72.7562029,
            23.0437421
          ],
          [
            72.7563293,
            23.0436821
          ],
          [
            72.7564088,
            23.0435939
          ],
          [
            72.7564618,
            23.0434926
          ],
          [
            72.7565148,
            23.0432601
          ],
          [
            72.7565862,
            23.0429374
          ],
          [
            72.756629,
            23.0425792
          ],
          [
            72.7566473,
            23.0422922
          ],
          [
            72.7566595,
            23.0420671
          ],
          [
            72.7567288,
            23.041872
          ],
          [
            72.7568348,
            23.0415456
          ],
          [
            72.7569327,
            23.0413393
          ],
          [
            72.7571684,
            23.0410749
          ]
        ]
      },
      "properties": {
        "osm_id": "1313540372",
        "road_id": "OSM-1313540372",
        "feature_type": "road",
        "highway": "unclassified",
        "name": "",
        "ref": "",
        "surface": "unpaved",
        "source": "osm",
        "source_date": "2026-09-28",
        "license": "ODbL 1.0 (OpenStreetMap contributors)",
        "attribution": "\u00a9 OpenStreetMap contributors",
        "review_status": "unverified"
      }
    }
  ]
}