{
  "type": "FeatureCollection",
  "name": "osm_roads_lalpur_3857",
  "crs": {
    "type": "name",
    "properties": {
      "name": "urn:ogc:def:crs:EPSG::3857"
    }
  },
  "features": [
    {
      "type": "Feature",
      "id": "OSM-653919189",
      "geometry": {
        "type": "LineString",
        "coordinates": [
          [
            8099664.693038795,
            2635927.4332531556
          ],
          [
            8099641.983862672,
            2635937.9206675617
          ],
          [
            8099631.998504349,
            2635944.8155111605
          ],
          [
            8099623.63841059,
            2635958.8713241583
          ],
          [
            8099610.101960509,
            2635989.0030605025
          ],
          [
            8099608.63254323,
            2635995.365690393
          ],
          [
            8099606.172382483,
            2636006.0345924776
          ],
          [
            8099606.617660447,
            2636040.968642718
          ],
          [
            8099609.378383819,
            2636056.8510802044
          ],
          [
            8099615.066809798,
            2636085.882232128
          ],
          [
            8099605.515597488,
            2636125.0017911224
          ],
          [
            8099591.177647074,
            2636150.682368986
          ],
          [
            8099572.075222454,
            2636185.314319269
          ],
          [
            8099569.381290777,
            2636217.260937322
          ],
          [
            8099573.566903631,
            2636243.534386139
          ],
          [
            8099584.609797116,
            2636283.8397775944
          ],
          [
            8099589.385403272,
            2636306.835185141
          ],
          [
            8099591.778772323,
            2636348.6407014183
          ],
          [
            8099595.0626973035,
            2636405.6637920393
          ],
          [
            8099606.2057783315,
            2636461.6588708744
          ],
          [
            8099607.597271966,
            2636468.6628054846
          ],
          [
            8099637.753722022,
            2636585.117268086
          ],
          [
            8099658.960085019,
            2636642.4436044777
          ],
          [
            8099697.476628832,
            2636737.088750517
          ],
          [
            8099715.688497525,
            2636777.1050384217
          ],
          [
            8099727.031953638,
            2636809.9479841664
          ],
          [
            8099730.2268230235,
            2636827.2223114697
          ],
          [
            8099738.976535,
            2636874.4364801487
          ],
          [
            8099758.680084871,
            2637013.575725115
          ],
          [
            8099763.500218822,
            2637030.5357456105
          ],
          [
            8099773.018035284,
            2637064.0445398483
          ],
          [
            8099778.984759992,
            2637106.735085457
          ],
          [
            8099784.361491397,
            2637184.0719126696
          ],
          [
            8099796.907198008,
            2637238.4123524413
          ],
          [
            8099840.499910602,
            2637402.934824419
          ],
          [
            8099865.5801918795,
            2637499.6772329947
          ],
          [
            8099890.660473155,
            2637564.1684586937
          ],
          [
            8099942.613279508,
            2637678.2233465984
          ],
          [
            8099977.845898345,
            2637763.3174264412
          ],
          [
            8100004.718423421,
            2637816.7645750395
          ],
          [
            8100047.120017465,
            2637886.930857954
          ],
          [
            8100098.171135942,
            2637972.9212595546
          ],
          [
            8100100.497713301,
            2637977.8087411453
          ],
          [
            8100154.89954845,
            2638092.3625353063
          ],
          [
            8100158.484036054,
            2638109.372070104
          ],
          [
            8100153.1073046485,
            2638125.4984804485
          ],
          [
            8100139.081048809,
            2638160.134628051
          ],
          [
            8100131.310948352,
            2638185.515966343
          ],
          [
            8100131.912073603,
            2638223.4307750976
          ],
          [
            8100139.081048809,
            2638287.924865975
          ],
          [
            8100151.0256301705,
            2638323.1662581903
          ],
          [
            8100174.313667646,
            2638380.7890627217
          ],
          [
            8100185.055998507,
            2638430.9475632496
          ],
          [
            8100189.8316046605,
            2638484.699355026
          ],
          [
            8100196.700017243,
            2638592.7841836265
          ],
          [
            8100199.694511548,
            2638656.9772811877
          ],
          [
            8100205.438597271,
            2638666.6316739507
          ],
          [
            8100208.054605304,
            2638671.011237466
          ],
          [
            8100214.021330011,
            2638673.9995038537
          ],
          [
            8100240.003299162,
            2638673.394591586
          ],
          [
            8100265.974136365,
            2638671.3015953097
          ],
          [
            8100282.10433058,
            2638673.1042337054
          ],
          [
            8100298.824518098,
            2638679.068669551
          ],
          [
            8100307.774605158,
            2638688.033474798
          ],
          [
            8100317.926942718,
            2638722.368361592
          ],
          [
            8100331.519052544,
            2638757.9010532126
          ],
          [
            8100341.370827477,
            2638774.62092335
          ],
          [
            8100350.176199201,
            2638782.678406694
          ],
          [
            8100377.7945648655,
            2638809.1011728407
          ],
          [
            8100426.908724205,
            2638858.8133522654
          ],
          [
            8100452.144852768,
            2638885.9863429065
          ],
          [
            8100480.2084963955,
            2638914.502303927
          ],
          [
            8100512.903030842,
            2638943.163496226
          ],
          [
            8100533.2077059625,
            2638957.3549790448
          ],
          [
            8100544.406446736,
            2638966.1626574663
          ],
          [
            8100548.580927642,
            2638976.6036340715
          ],
          [
            8100561.271349592,
            2639038.11237373
          ],
          [
            8100570.076721313,
            2639087.5348869716
          ],
          [
            8100576.499855933,
            2639110.66733638
          ],
          [
            8100588.299721956,
            2639136.195339085
          ],
          [
            8100595.758127839,
            2639146.0556920776
          ],
          [
            8100609.194390378,
            2639153.072879437
          ],
          [
            8100622.786500205,
            2639156.3516007746
          ],
          [
            8100711.764169195,
            2639140.8290993175
          ],
          [
            8100787.305575647,
            2639127.2423857115
          ],
          [
            8100860.008335085,
            2639113.2080362756
          ],
          [
            8100895.830947223,
            2639112.905571983
          ],
          [
            8100936.440297465,
            2639120.3703924087
          ],
          [
            8100976.00324449,
            2639127.992497835
          ],
          [
            8101011.836988578,
            2639130.230735816
          ],
          [
            8101048.56128859,
            2639131.718861783
          ],
          [
            8101098.577135802,
            2639134.562029657
          ],
          [
            8101146.644891928,
            2639136.9454516172
          ],
          [
            8101195.013210677,
            2639138.8812260567
          ],
          [
            8101276.677189124,
            2639133.364269512
          ],
          [
            8101321.616867558,
            2639129.1781589976
          ],
          [
            8101371.621582821,
            2639127.0972027257
          ],
          [
            8101400.442198988,
            2639125.1493311063
          ],
          [
            8101420.145748857,
            2639128.1376808295
          ],
          [
            8101438.802895515,
            2639132.614157143
          ],
          [
            8101454.031401856,
            2639139.933803503
          ],
          [
            8101473.734951725,
            2639154.1133592003
          ],
          [
            8101500.908039428,
            2639182.629789738
          ],
          [
            8101515.390705181,
            2639216.82053554
          ],
          [
            8101551.66972723,
            2639303.2535124402
          ],
          [
            8101567.788789498,
            2639345.3449896737
          ],
          [
            8101575.558889954,
            2639365.658794129
          ],
          [
            8101599.147490053,
            2639423.7329430794
          ],
          [
            8101606.305333313,
            2639431.645561908
          ],
          [
            8101619.2963178875,
            2639437.622374396
          ],
          [
            8101631.686177213,
            2639443.587090262
          ],
          [
            8101639.456277669,
            2639456.726411217
          ],
          [
            8101646.614120927,
            2639487.48165881
          ],
          [
            8101651.245011744,
            2639513.4579104315
          ],
          [
            8101689.917402847,
            2639502.2664601933
          ],
          [
            8101726.64170286,
            2639499.580513284
          ],
          [
            8101752.02254676,
            2639509.7314591194
          ],
          [
            8101776.201140162,
            2639533.9171112357
          ],
          [
            8101777.481314305,
            2639535.5988562666
          ],
          [
            8101791.429646501,
            2639553.916579564
          ],
          [
            8101794.413008854,
            2639590.043933085
          ],
          [
            8101816.209365152,
            2639785.3217728455
          ],
          [
            8101832.339559367,
            2639916.6940191216
          ],
          [
            8101849.95030281,
            2639966.8572508227
          ],
          [
            8101857.419840644,
            2640005.6715506474
          ],
          [
            8101856.818715393,
            2640045.683770187
          ],
          [
            8101860.703765621,
            2640139.7316271896
          ],
          [
            8101865.779934401,
            2640170.185681133
          ],
          [
            8101878.314509066,
            2640187.802354955
          ],
          [
            8101886.975165449,
            2640193.1865756875
          ],
          [
            8101899.520872062,
            2640195.267668224
          ],
          [
            8101928.18564094,
            2640193.1865756875
          ],
          [
            8101948.490316061,
            2640191.0933840447
          ],
          [
            8101963.718822403,
            2640191.686253328
          ],
          [
            8101974.761715888,
            2640199.4540528553
          ],
          [
            8101980.138447294,
            2640206.6168868546
          ],
          [
            8101986.405734625,
            2640256.4785264162
          ],
          [
            8102001.634240966,
            2640346.946152235
          ],
          [
            8102012.387703776,
            2640403.08787675
          ],
          [
            8102018.376692381,
            2640431.062015212
          ]
        ]
      },
      "properties": {
        "osm_id": "653919189",
        "road_id": "OSM-653919189",
        "feature_type": "road",
        "highway": "primary",
        "name": "",
        "ref": "SH144",
        "surface": "paved",
        "source": "osm",
        "source_date": "2026-09-28",
        "license": "ODbL 1.0 (OpenStreetMap contributors)",
        "attribution": "\u00a9 OpenStreetMap contributors",
        "review_status": "unverified"
      }
    },
    {
      "type": "Feature",
      "id": "OSM-668421750",
      "geometry": {
        "type": "LineString",
        "coordinates": [
          [
            8099763.500218822,
            2637030.5357456105
          ],
          [
            8099738.442201444,
            2637038.144776233
          ],
          [
            8099609.901585424,
            2637034.672928751
          ],
          [
            8099473.023139547,
            2637015.220918912
          ],
          [
            8099422.305979541,
            2637024.596107323
          ],
          [
            8099382.008323873,
            2637022.5154198795
          ],
          [
            8099328.151954228,
            2637008.615950701
          ],
          [
            8099290.937848455,
            2636986.70828227
          ],
          [
            8099279.171378279,
            2636979.7767069517
          ],
          [
            8099245.8200588375,
            2636945.0462928093
          ],
          [
            8099230.880983171,
            2636920.719320921
          ],
          [
            8099212.869489561,
            2636912.7716308683
          ],
          [
            8099195.447989253,
            2636905.0900771897
          ],
          [
            8099137.506194294,
            2636889.9447252746
          ],
          [
            8099097.130614984,
            2636879.3841168107
          ],
          [
            8099006.460889732,
            2636848.464436539
          ],
          [
            8098974.489931976,
            2636822.40775622
          ],
          [
            8098950.52284561,
            2636815.1133448235
          ],
          [
            8098894.239711065,
            2636815.4641539184
          ],
          [
            8098847.674768065,
            2636808.568942019
          ],
          [
            8098835.52981162,
            2636806.778606772
          ],
          [
            8098774.738237698,
            2636810.9399268324
          ],
          [
            8098725.401439378,
            2636802.9559997465
          ],
          [
            8098716.718519097,
            2636793.568841993
          ],
          [
            8098714.291754196,
            2636769.2541930526
          ],
          [
            8098702.469624275,
            2636758.488016804
          ],
          [
            8098678.502537906,
            2636750.4920185953
          ],
          [
            8098533.631352589,
            2636730.0000229427
          ],
          [
            8098462.4202743275,
            2636701.850788747
          ],
          [
            8098377.305391668,
            2636672.673378576
          ],
          [
            8098329.014996562,
            2636661.556460335
          ],
          [
            8098266.475706634,
            2636634.8105651415
          ],
          [
            8098237.298868097,
            2636635.149273626
          ],
          [
            8098211.584065725,
            2636642.104895841
          ],
          [
            8098179.646503815,
            2636667.181450662
          ]
        ]
      },
      "properties": {
        "osm_id": "668421750",
        "road_id": "OSM-668421750",
        "feature_type": "road",
        "highway": "tertiary",
        "name": "",
        "ref": "",
        "surface": "paved",
        "source": "osm",
        "source_date": "2026-09-28",
        "license": "ODbL 1.0 (OpenStreetMap contributors)",
        "attribution": "\u00a9 OpenStreetMap contributors",
        "review_status": "unverified"
      }
    },
    {
      "type": "Feature",
      "id": "OSM-1306611452",
      "geometry": {
        "type": "LineString",
        "coordinates": [
          [
            8099235.712249074,
            2636788.8510714513
          ],
          [
            8099212.869489561,
            2636912.7716308683
          ]
        ]
      },
      "properties": {
        "osm_id": "1306611452",
        "road_id": "OSM-1306611452",
        "feature_type": "road",
        "highway": "residential",
        "name": "",
        "ref": "",
        "surface": "unpaved",
        "source": "osm",
        "source_date": "2026-09-28",
        "license": "ODbL 1.0 (OpenStreetMap contributors)",
        "attribution": "\u00a9 OpenStreetMap contributors",
        "review_status": "unverified"
      }
    },
    {
      "type": "Feature",
      "id": "OSM-1306611453",
      "geometry": {
        "type": "LineString",
        "coordinates": [
          [
            8099169.632999338,
            2636771.4195259903
          ],
          [
            8099137.506194294,
            2636889.9447252746
          ]
        ]
      },
      "properties": {
        "osm_id": "1306611453",
        "road_id": "OSM-1306611453",
        "feature_type": "road",
        "highway": "residential",
        "name": "",
        "ref": "",
        "surface": "unpaved",
        "source": "osm",
        "source_date": "2026-09-28",
        "license": "ODbL 1.0 (OpenStreetMap contributors)",
        "attribution": "\u00a9 OpenStreetMap contributors",
        "review_status": "unverified"
      }
    },
    {
      "type": "Feature",
      "id": "OSM-1313540372",
      "geometry": {
        "type": "LineString",
        "coordinates": [
          [
            8099127.075558008,
            2637549.5789750507
          ],
          [
            8099132.864171529,
            2637508.5929996953
          ],
          [
            8099141.936710028,
            2637460.7116395836
          ],
          [
            8099147.836643041,
            2637420.778354137
          ],
          [
            8099155.784854684,
            2637380.845166559
          ],
          [
            8099160.092918977,
            2637354.5214950973
          ],
          [
            8099169.844506371,
            2637325.0162907285
          ],
          [
            8099183.458880095,
            2637309.3624647576
          ],
          [
            8099197.529663731,
            2637302.1041270616
          ],
          [
            8099206.37956325,
            2637291.4343765164
          ],
          [
            8099212.279496261,
            2637279.1798984013
          ],
          [
            8099218.179429273,
            2637251.0539099355
          ],
          [
            8099226.127640915,
            2637212.016328119
          ],
          [
            8099230.892115122,
            2637168.684358907
          ],
          [
            8099232.929261803,
            2637133.9656392494
          ],
          [
            8099234.28735959,
            2637106.735085457
          ],
          [
            8099242.001800302,
            2637083.133696035
          ],
          [
            8099253.801666326,
            2637043.648926196
          ],
          [
            8099264.699844474,
            2637018.6927622487
          ],
          [
            8099290.937848455,
            2636986.70828227
          ]
        ]
      },
      "properties": {
        "osm_id": "1313540372",
        "road_id": "OSM-1313540372",
        "feature_type": "road",
        "highway": "unclassified",
        "name": "",
        "ref": "",
        "surface": "unpaved",
        "source": "osm",
        "source_date": "2026-09-28",
        "license": "ODbL 1.0 (OpenStreetMap contributors)",
        "attribution": "\u00a9 OpenStreetMap contributors",
        "review_status": "unverified"
      }
    }
  ]
}