{
  "type": "FeatureCollection",
  "name": "sanitized_lalpur_road_polygons_3857",
  "crs": {
    "type": "name",
    "properties": {
      "name": "urn:ogc:def:crs:EPSG::3857"
    }
  },
  "features": [
    {
      "type": "Feature",
      "id": "VR-001",
      "geometry": {
        "type": "Polygon",
        "coordinates": [
          [
            [
              8099238.581500001,
              2636790.9624000005
            ],
            [
              8099228.750399999,
              2636789.132199999
            ],
            [
              8099208.053300001,
              2636901.8445000015
            ],
            [
              8099206.329599999,
              2636904.2250999995
            ],
            [
              8099203.860599998,
              2636905.3581999987
            ],
            [
              8099216.759,
              2636910.9805999994
            ],
            [
              8099216.815000001,
              2636911.006000001
            ],
            [
              8099219.9593,
              2636912.4932000004
            ],
            [
              8099217.905099999,
              2636908.9875999987
            ],
            [
              8099217.564100001,
              2636905.4191999994
            ],
            [
              8099238.581500001,
              2636790.9624000005
            ]
          ]
        ]
      },
      "properties": {
        "road_id": "VR-001",
        "feature_type": "village_road_polygon",
        "road_type": "5",
        "width": 0.0,
        "pavement": "",
        "status": "",
        "lgd_village_code": "511638",
        "locality": "Lalpur",
        "source": "manual_visual_reference",
        "verification_status": "unverified",
        "sanitization_note": "Ownership/name fields stripped."
      }
    },
    {
      "type": "Feature",
      "id": "VR-002",
      "geometry": {
        "type": "Polygon",
        "coordinates": [
          [
            [
              8099235.928800002,
              2637115.6138000004
            ],
            [
              8099231.964499999,
              2637115.4816999994
            ],
            [
              8099231.953000002,
              2637115.6169999987
            ],
            [
              8099229.2575,
              2637139.2424999997
            ],
            [
              8099229.250399999,
              2637139.3167999983
            ],
            [
              8099225.2861,
              2637191.1691000015
            ],
            [
              8099219.129299998,
              2637236.327799998
            ],
            [
              8099219.111000001,
              2637236.598000001
            ],
            [
              8099219.141399998,
              2637236.9453000017
            ],
            [
              8099219.231600001,
              2637237.2820000015
            ],
            [
              8099219.379000001,
              2637237.598000001
            ],
            [
              8099219.578899998,
              2637237.8834999986
            ],
            [
              8099219.825399999,
              2637238.1301000006
            ],
            [
              8099220.111000001,
              2637238.329999998
            ],
            [
              8099220.427000001,
              2637238.477400001
            ],
            [
              8099220.763700001,
              2637238.5676000006
            ],
            [
              8099221.111000001,
              2637238.598000001
            ],
            [
              8099221.458299998,
              2637238.5676000006
            ],
            [
              8099221.795000002,
              2637238.477400001
            ],
            [
              8099222.111000001,
              2637238.329999998
            ],
            [
              8099222.396600001,
              2637238.1301000006
            ],
            [
              8099222.643100001,
              2637237.8834999986
            ],
            [
              8099222.8431,
              2637237.598000001
            ],
            [
              8099222.990400001,
              2637237.2820000015
            ],
            [
              8099223.080600001,
              2637236.9453000017
            ],
            [
              8099223.092700001,
              2637236.8680999987
            ],
            [
              8099229.2575,
              2637191.650800001
            ],
            [
              8099229.27,
              2637191.533
            ],
            [
              8099233.2359,
              2637139.6589
            ],
            [
              8099235.8325,
              2637116.900899999
            ],
            [
              8099235.928800002,
              2637115.6138000004
            ]
          ]
        ]
      },
      "properties": {
        "road_id": "VR-002",
        "feature_type": "village_road_polygon",
        "road_type": "6",
        "width": 0.0,
        "pavement": "",
        "status": "",
        "lgd_village_code": "511638",
        "locality": "Lalpur",
        "source": "manual_visual_reference",
        "verification_status": "unverified",
        "sanitization_note": "Ownership/name fields stripped."
      }
    },
    {
      "type": "Feature",
      "id": "VR-003",
      "geometry": {
        "type": "Polygon",
        "coordinates": [
          [
            [
              8099272.583799999,
              2637010.6964000016
            ],
            [
              8099269.492199998,
              2637009.0557000004
            ],
            [
              8099262.783500001,
              2637021.6977999993
            ],
            [
              8099258.988400001,
              2637028.8495000005
            ],
            [
              8099257.585900001,
              2637031.4924999997
            ],
            [
              8099257.546599999,
              2637031.5711999983
            ],
            [
              8099250.244100001,
              2637047.1816999987
            ],
            [
              8099250.182999998,
              2637047.329399999
            ],
            [
              8099242.6142,
              2637068.5007999986
            ],
            [
              8099242.583299998,
              2637068.595899999
            ],
            [
              8099236.074499998,
              2637090.7151000015
            ],
            [
              8099236.048900001,
              2637090.8121999986
            ],
            [
              8099233.350200001,
              2637102.4010000005
            ],
            [
              8099233.3312,
              2637102.493999999
            ],
            [
              8099233.310899999,
              2637102.649099998
            ],
            [
              8099231.964499999,
              2637115.4816999994
            ],
            [
              8099235.928800002,
              2637115.6138000004
            ],
            [
              8099236.236900002,
              2637111.497200001
            ],
            [
              8099236.7875000015,
              2637103.0722000003
            ],
            [
              8099239.4463,
              2637091.655000001
            ],
            [
              8099245.926800001,
              2637069.6319000013
            ],
            [
              8099253.449299999,
              2637048.59
            ],
            [
              8099260.698199999,
              2637033.0942
            ],
            [
              8099272.583799999,
              2637010.6964000016
            ]
          ]
        ]
      },
      "properties": {
        "road_id": "VR-003",
        "feature_type": "village_road_polygon",
        "road_type": "6",
        "width": 0.0,
        "pavement": "",
        "status": "",
        "lgd_village_code": "511638",
        "locality": "Lalpur",
        "source": "manual_visual_reference",
        "verification_status": "unverified",
        "sanitization_note": "Ownership/name fields stripped."
      }
    },
    {
      "type": "Feature",
      "id": "VR-004",
      "geometry": {
        "type": "Polygon",
        "coordinates": [
          [
            [
              8099390.6829,
              2637006.4184999987
            ],
            [
              8099390.269200001,
              2637004.1543000005
            ],
            [
              8099389.492199998,
              2637004.156300001
            ],
            [
              8099389.333500002,
              2637003.4816000015
            ],
            [
              8099389.412900001,
              2637000.0683999993
            ],
            [
              8099389.775600001,
              2636988.2602999993
            ],
            [
              8099390.246300001,
              2636979.6292999983
            ],
            [
              8099390.921,
              2636971.5331000015
            ],
            [
              8099391.627700001,
              2636971.5518000014
            ],
            [
              8099397.183899999,
              2636972.3456000015
            ],
            [
              8099407.502700001,
              2636974.1314999983
            ],
            [
              8099411.934500001,
              2636974.329999998
            ],
            [
              8099413.588100001,
              2636973.4701000005
            ],
            [
              8099417.093899999,
              2636972.014800001
            ],
            [
              8099421.194899999,
              2636970.6257999986
            ],
            [
              8099425.229800001,
              2636970.0304999985
            ],
            [
              8099430.6537999995,
              2636970.0966
            ],
            [
              8099437.268399999,
              2636968.5753000006
            ],
            [
              8099444.4783000015,
              2636966.1279000007
            ],
            [
              8099443.949099999,
              2636964.3418999985
            ],
            [
              8099441.303300001,
              2636965.1356999986
            ],
            [
              8099436.7524,
              2636966.9448000006
            ],
            [
              8099436.749499999,
              2636966.9455000013
            ],
            [
              8099436.1439,
              2636967.1862000003
            ],
            [
              8099432.9026999995,
              2636968.3106999993
            ],
            [
              8099430.322999999,
              2636968.3768000007
            ],
            [
              8099426.2881000005,
              2636968.5091000013
            ],
            [
              8099420.2027,
              2636968.3768000007
            ],
            [
              8099417.556899998,
              2636969.0383
            ],
            [
              8099412.992800001,
              2636970.5595999993
            ],
            [
              8099409.619399998,
              2636971.088799998
            ],
            [
              8099404.261500001,
              2636970.162799999
            ],
            [
              8099393.545899998,
              2636968.2445
            ],
            [
              8099378.067699999,
              2636965.8632999994
            ],
            [
              8099364.375500001,
              2636960.637699999
            ],
            [
              8099356.1734,
              2636958.3225999996
            ],
            [
              8099350.8156,
              2636956.8013000004
            ],
            [
              8099343.2749999985,
              2636954.1554000005
            ],
            [
              8099336.329599999,
              2636952.3695
            ],
            [
              8099332.9562,
              2636951.840300001
            ],
            [
              8099332.096299998,
              2636950.5835000016
            ],
            [
              8099331.8977999985,
              2636949.9221
            ],
            [
              8099331.8977999985,
              2636948.3346000016
            ],
            [
              8099332.228599999,
              2636946.7470999993
            ],
            [
              8099333.353100002,
              2636939.0080000013
            ],
            [
              8099334.080699999,
              2636937.817400001
            ],
            [
              8099335.2051,
              2636937.0898
            ],
            [
              8099337.0572,
              2636936.6928999983
            ],
            [
              8099342.5473,
              2636935.3038000017
            ],
            [
              8099358.7531,
              2636931.8775000013
            ],
            [
              8099363.4296,
              2636929.2393000014
            ],
            [
              8099370.507199999,
              2636927.7179999985
            ],
            [
              8099376.8506000005,
              2636927.1149999984
            ],
            [
              8099376.588399999,
              2636925.1915000007
            ],
            [
              8099383.857700001,
              2636923.2952999994
            ],
            [
              8099387.925700001,
              2636922.2699999996
            ],
            [
              8099392.9859,
              2636920.9800999984
            ],
            [
              8099394.1765,
              2636920.6493999995
            ],
            [
              8099395.4333,
              2636919.5579999983
            ],
            [
              8099395.763999999,
              2636918.896499999
            ],
            [
              8099395.909499999,
              2636917.9439999983
            ],
            [
              8099395.664799999,
              2636917.6066999994
            ],
            [
              8099395.8301,
              2636916.416099999
            ],
            [
              8099392.390500002,
              2636917.7058999985
            ],
            [
              8099381.6087,
              2636920.4510000013
            ],
            [
              8099376.136300001,
              2636921.8762000017
            ],
            [
              8099356.451200001,
              2636929.2580999993
            ],
            [
              8099343.036800001,
              2636932.6711999997
            ],
            [
              8099338.4331,
              2636933.147500001
            ],
            [
              8099335.6548999995,
              2636932.2743000016
            ],
            [
              8099333.353100002,
              2636929.4168
            ],
            [
              8099332.9562,
              2636927.432500001
            ],
            [
              8099332.1624,
              2636920.0505999997
            ],
            [
              8099331.9243,
              2636908.6204999983
            ],
            [
              8099330.019299999,
              2636894.094900001
            ],
            [
              8099330.257399999,
              2636890.0467999987
            ],
            [
              8099330.7531,
              2636876.322999999
            ],
            [
              8099331.368700001,
              2636874.0130000003
            ],
            [
              8099333.353100002,
              2636871.8698000014
            ],
            [
              8099335.972399998,
              2636870.5205000006
            ],
            [
              8099339.385600001,
              2636869.885499999
            ],
            [
              8099345.5768,
              2636869.568
            ],
            [
              8099353.196800001,
              2636869.4092000015
            ],
            [
              8099357.483100001,
              2636870.282299999
            ],
            [
              8099367.246300001,
              2636872.346099999
            ],
            [
              8099377.8825,
              2636874.4098999985
            ],
            [
              8099387.407499999,
              2636875.8385999985
            ],
            [
              8099399.631299999,
              2636876.791099999
            ],
            [
              8099407.489500001,
              2636876.791099999
            ],
            [
              8099410.5057,
              2636877.2674000002
            ],
            [
              8099412.252,
              2636877.9816999994
            ],
            [
              8099413.601300001,
              2636879.8073999994
            ],
            [
              8099414.315699998,
              2636881.791700002
            ],
            [
              8099414.633200001,
              2636884.331700001
            ],
            [
              8099416.855700001,
              2636907.9855000004
            ],
            [
              8099421.380100001,
              2636907.9855000004
            ],
            [
              8099418.950300001,
              2636893.5304000005
            ],
            [
              8099418.4212,
              2636886.5190000013
            ],
            [
              8099417.6274,
              2636881.3596
            ],
            [
              8099417.296700001,
              2636879.1105999984
            ],
            [
              8099416.238400001,
              2636877.3907999992
            ],
            [
              8099414.386300001,
              2636875.9356000014
            ],
            [
              8099412.8649,
              2636874.9433999993
            ],
            [
              8099410.8805,
              2636874.4142999984
            ],
            [
              8099405.919599999,
              2636874.0835000016
            ],
            [
              8099400.892499998,
              2636873.6204999983
            ],
            [
              8099394.674800001,
              2636873.2897999994
            ],
            [
              8099385.6789,
              2636872.297600001
            ],
            [
              8099373.574200001,
              2636870.4455000013
            ],
            [
              8099358.492899999,
              2636867.8658000007
            ],
            [
              8099351.6138,
              2636866.212200001
            ],
            [
              8099344.602299999,
              2636865.9475999996
            ],
            [
              8099338.384599999,
              2636866.410599999
            ],
            [
              8099331.5715,
              2636866.5429
            ],
            [
              8099331.7038,
              2636861.714200001
            ],
            [
              8099332.894400001,
              2636854.7688999996
            ],
            [
              8099334.3497,
              2636850.535599999
            ],
            [
              8099340.765799999,
              2636837.4387000017
            ],
            [
              8099346.652800001,
              2636827.5168000013
            ],
            [
              8099345.660599999,
              2636827.3845000006
            ],
            [
              8099340.4351,
              2636835.0573999994
            ],
            [
              8099334.945,
              2636834.5944
            ],
            [
              8099333.820500001,
              2636835.6526999995
            ],
            [
              8099323.435600001,
              2636834.9913000017
            ],
            [
              8099323.369399998,
              2636836.3803000003
            ],
            [
              8099335.209600002,
              2636836.7771999985
            ],
            [
              8099337.2601,
              2636837.2402000017
            ],
            [
              8099337.921500001,
              2636837.7694000006
            ],
            [
              8099337.5907999985,
              2636839.356899999
            ],
            [
              8099331.306899998,
              2636851.8585
            ],
            [
              8099330.116300002,
              2636857.877799999
            ],
            [
              8099329.521000002,
              2636867.7335
            ],
            [
              8099327.735100001,
              2636876.993999999
            ],
            [
              8099326.610599998,
              2636889.5617000014
            ],
            [
              8099306.766800001,
              2636889.098700002
            ],
            [
              8099306.436099999,
              2636892.141399998
            ],
            [
              8099327.139699999,
              2636892.670600001
            ],
            [
              8099327.999600001,
              2636902.526299998
            ],
            [
              8099328.5287999995,
              2636916.0201000012
            ],
            [
              8099328.407299999,
              2636920.9530000016
            ],
            [
              8099328.198100001,
              2636929.4477000013
            ],
            [
              8099329.9179,
              2636929.7784
            ],
            [
              8099329.6532999985,
              2636934.0117999986
            ],
            [
              8099327.139699999,
              2636934.2102000006
            ],
            [
              8099326.9065999985,
              2636935.9054999985
            ],
            [
              8099328.372099999,
              2636936.0656000003
            ],
            [
              8099328.0759,
              2636938.778099999
            ],
            [
              8099328.462699998,
              2636938.7743000016
            ],
            [
              8099329.3002,
              2636938.8378
            ],
            [
              8099329.2793000005,
              2636939.0144999996
            ],
            [
              8099328.923599999,
              2636942.0275
            ],
            [
              8099326.9015999995,
              2636946.3016999997
            ],
            [
              8099318.567200001,
              2636945.349199999
            ],
            [
              8099318.626600001,
              2636944.5771000013
            ],
            [
              8099318.490600001,
              2636944.5687000006
            ],
            [
              8099318.569899999,
              2636943.281199999
            ],
            [
              8099315.818399999,
              2636943.1449999996
            ],
            [
              8099315.901799999,
              2636941.4613999985
            ],
            [
              8099303.2478,
              2636940.8247999996
            ],
            [
              8099299.675900001,
              2636938.5229
            ],
            [
              8099296.1041,
              2636938.2054000013
            ],
            [
              8099295.4690999985,
              2636943.8411
            ],
            [
              8099299.914099999,
              2636944.158599999
            ],
            [
              8099309.5185,
              2636947.174800001
            ],
            [
              8099315.789099999,
              2636948.6829999983
            ],
            [
              8099318.249699999,
              2636949.8735999987
            ],
            [
              8099320.075399999,
              2636951.9373000003
            ],
            [
              8099320.631000001,
              2636953.9217000008
            ],
            [
              8099320.631000001,
              2636958.0491999984
            ],
            [
              8099319.599100001,
              2636962.414900001
            ],
            [
              8099316.916200001,
              2636968.616700001
            ],
            [
              8099312.947500002,
              2636974.8079999983
            ],
            [
              8099311.359999999,
              2636976.2896
            ],
            [
              8099307.602899998,
              2636978.194600001
            ],
            [
              8099303.475400001,
              2636978.6708999984
            ],
            [
              8099303.444200002,
              2636978.8093000017
            ],
            [
              8099303.1578,
              2636980.661699999
            ],
            [
              8099303.031800002,
              2636980.6422000006
            ],
            [
              8099302.184300002,
              2636980.5111999996
            ],
            [
              8099302.148800001,
              2636980.7402999997
            ],
            [
              8099301.887899999,
              2636982.4279999994
            ],
            [
              8099297.730999999,
              2636981.7852
            ],
            [
              8099298.130800001,
              2636979.200100001
            ],
            [
              8099289.593600001,
              2636977.6878000014
            ],
            [
              8099284.366799999,
              2636975.9888999984
            ],
            [
              8099287.243299998,
              2636978.2465999983
            ],
            [
              8099287.3017,
              2636978.2941999994
            ],
            [
              8099299.287700001,
              2636988.5584999993
            ],
            [
              8099304.233199999,
              2636992.8616999984
            ],
            [
              8099307.673599999,
              2636994.7994000018
            ],
            [
              8099308.244100001,
              2636992.1099999994
            ],
            [
              8099309.037799999,
              2636988.2074000016
            ],
            [
              8099310.691500001,
              2636984.833900001
            ],
            [
              8099315.454,
              2636978.1532000005
            ],
            [
              8099320.2826000005,
              2636969.7525999993
            ],
            [
              8099327.691,
              2636957.1849000007
            ],
            [
              8099329.873799998,
              2636956.0604000017
            ],
            [
              8099332.254999999,
              2636955.7958999984
            ],
            [
              8099334.041000001,
              2636955.7958999984
            ],
            [
              8099336.3561,
              2636955.7958999984
            ],
            [
              8099340.986299999,
              2636956.3249999993
            ],
            [
              8099347.666999999,
              2636957.9125000015
            ],
            [
              8099351.966499999,
              2636959.7646000013
            ],
            [
              8099354.1493999995,
              2636961.418299999
            ],
            [
              8099355.1415,
              2636962.6088999994
            ],
            [
              8099355.4723000005,
              2636964.5933
            ],
            [
              8099354.943100002,
              2636967.7683000006
            ],
            [
              8099353.355599999,
              2636971.406300001
            ],
            [
              8099351.569699999,
              2636973.3907000013
            ],
            [
              8099348.923799999,
              2636975.7058000006
            ],
            [
              8099336.554499999,
              2636988.3396999985
            ],
            [
              8099338.393399999,
              2636989.2657000013
            ],
            [
              8099348.870900001,
              2636977.9943999983
            ],
            [
              8099354.268399999,
              2636973.8139999993
            ],
            [
              8099355.802999999,
              2636971.3269000016
            ],
            [
              8099357.6022000015,
              2636965.717700001
            ],
            [
              8099358.237199999,
              2636963.3894000016
            ],
            [
              8099358.7663,
              2636963.071899999
            ],
            [
              8099361.570900001,
              2636963.4422999993
            ],
            [
              8099372.895100001,
              2636967.0407
            ],
            [
              8099381.5205999985,
              2636969.527800001
            ],
            [
              8099387.6589,
              2636970.9036
            ],
            [
              8099387.341400001,
              2636980.0053000003
            ],
            [
              8099386.2831000015,
              2636987.4136000015
            ],
            [
              8099386.1371,
              2636993.8095000014
            ],
            [
              8099386.679699998,
              2637001.9866999984
            ],
            [
              8099388.373100001,
              2637007.3313000016
            ],
            [
              8099389.563700002,
              2637011.3528999984
            ],
            [
              8099390.092799999,
              2637014.3691999987
            ],
            [
              8099390.039900001,
              2637018.0469000004
            ],
            [
              8099389.801800001,
              2637019.5020999983
            ],
            [
              8099387.456,
              2637020.467500001
            ],
            [
              8099394.9956,
              2637021.561999999
            ],
            [
              8099394.223000001,
              2637019.832899999
            ],
            [
              8099393.5879999995,
              2637018.864500001
            ],
            [
              8099393.1435,
              2637017.3246
            ],
            [
              8099392.191,
              2637012.4191999994
            ],
            [
              8099391.190900002,
              2637008.8156000003
            ],
            [
              8099390.6829,
              2637006.4184999987
            ]
          ]
        ]
      },
      "properties": {
        "road_id": "VR-004",
        "feature_type": "village_road_polygon",
        "road_type": "6",
        "width": 0.0,
        "pavement": "",
        "status": "",
        "lgd_village_code": "511638",
        "locality": "Lalpur",
        "source": "manual_visual_reference",
        "verification_status": "unverified",
        "sanitization_note": "Ownership/name fields stripped."
      }
    },
    {
      "type": "Feature",
      "id": "VR-005",
      "geometry": {
        "type": "Polygon",
        "coordinates": [
          [
            [
              8099343.480900001,
              2636909.9188
            ],
            [
              8099343.480900001,
              2636911.876699999
            ],
            [
              8099351.365499999,
              2636912.1413000003
            ],
            [
              8099352.053399999,
              2636912.7234000005
            ],
            [
              8099353.111699998,
              2636914.9987999983
            ],
            [
              8099355.8105,
              2636918.3324999996
            ],
            [
              8099357.2392,
              2636920.9255000018
            ],
            [
              8099358.297600001,
              2636923.835900001
            ],
            [
              8099358.509300001,
              2636925.1587999985
            ],
            [
              8099358.033,
              2636926.7991999984
            ],
            [
              8099356.451200001,
              2636929.2580999993
            ],
            [
              8099362.4158000015,
              2636927.021400001
            ],
            [
              8099361.835499998,
              2636926.402800001
            ],
            [
              8099360.586199999,
              2636923.848200001
            ],
            [
              8099358.794399999,
              2636920.6455999985
            ],
            [
              8099356.434900001,
              2636916.2875000015
            ],
            [
              8099354.9771,
              2636912.418200001
            ],
            [
              8099353.146400001,
              2636910.8660000004
            ],
            [
              8099352.231400002,
              2636909.9814999998
            ],
            [
              8099350.7984,
              2636909.735800002
            ],
            [
              8099343.480900001,
              2636909.9188
            ]
          ]
        ]
      },
      "properties": {
        "road_id": "VR-005",
        "feature_type": "village_road_polygon",
        "road_type": "6",
        "width": 0.0,
        "pavement": "",
        "status": "",
        "lgd_village_code": "511638",
        "locality": "Lalpur",
        "source": "manual_visual_reference",
        "verification_status": "unverified",
        "sanitization_note": "Ownership/name fields stripped."
      }
    },
    {
      "type": "Feature",
      "id": "VR-006",
      "geometry": {
        "type": "Polygon",
        "coordinates": [
          [
            [
              8099304.0326000005,
              2637143.6900999993
            ],
            [
              8099303.9969,
              2637143.665100001
            ],
            [
              8099303.6554000005,
              2637144.0066
            ],
            [
              8099303.680399999,
              2637144.042300001
            ],
            [
              8099303.695099998,
              2637144.0584000014
            ],
            [
              8099304.965100002,
              2637145.328400001
            ],
            [
              8099304.9811,
              2637145.3429999985
            ],
            [
              8099306.291499998,
              2637146.4437999986
            ],
            [
              8099307.994199999,
              2637148.3013000004
            ],
            [
              8099308.876800001,
              2637150.6374999993
            ],
            [
              8099308.886999998,
              2637150.6609000005
            ],
            [
              8099309.204500001,
              2637151.2958999984
            ],
            [
              8099309.651700001,
              2637151.0722999983
            ],
            [
              8099309.34,
              2637150.4488000013
            ],
            [
              8099308.444899999,
              2637148.079500001
            ],
            [
              8099308.427499998,
              2637148.042800002
            ],
            [
              8099308.402600002,
              2637148.007199999
            ],
            [
              8099308.395300001,
              2637147.9989
            ],
            [
              8099306.649099998,
              2637146.093899999
            ],
            [
              8099306.625599999,
              2637146.0714000016
            ],
            [
              8099305.311000001,
              2637144.967099998
            ],
            [
              8099304.048599999,
              2637143.7047999986
            ],
            [
              8099304.0326000005,
              2637143.6900999993
            ]
          ]
        ]
      },
      "properties": {
        "road_id": "VR-006",
        "feature_type": "village_road_polygon",
        "road_type": "8",
        "width": 0.0,
        "pavement": "",
        "status": "",
        "lgd_village_code": "511638",
        "locality": "Lalpur",
        "source": "manual_visual_reference",
        "verification_status": "unverified",
        "sanitization_note": "Ownership/name fields stripped."
      }
    },
    {
      "type": "Feature",
      "id": "VR-007",
      "geometry": {
        "type": "Polygon",
        "coordinates": [
          [
            [
              8099236.236900002,
              2637111.497200001
            ],
            [
              8099235.8325,
              2637116.900899999
            ],
            [
              8099237.7313,
              2637116.4059000015
            ],
            [
              8099239.9538,
              2637116.1942000017
            ],
            [
              8099244.875100002,
              2637116.9880000018
            ],
            [
              8099254.287700001,
              2637118.7474000007
            ],
            [
              8099260.6774,
              2637119.6603000015
            ],
            [
              8099269.924600001,
              2637123.0337000005
            ],
            [
              8099270.877099998,
              2637123.787799999
            ],
            [
              8099271.115200002,
              2637125.018100001
            ],
            [
              8099274.568,
              2637125.613400001
            ],
            [
              8099288.5777,
              2637127.5978000015
            ],
            [
              8099292.903700002,
              2637129.502799999
            ],
            [
              8099295.364300001,
              2637131.6459
            ],
            [
              8099298.089499999,
              2637134.8209000006
            ],
            [
              8099300.391399998,
              2637138.6044999994
            ],
            [
              8099301.529100001,
              2637141.594300002
            ],
            [
              8099302.455200002,
              2637143.2875999995
            ],
            [
              8099303.6554000005,
              2637144.0066
            ],
            [
              8099303.9969,
              2637143.665100001
            ],
            [
              8099304.254299998,
              2637141.9646999985
            ],
            [
              8099303.936799999,
              2637139.1072000004
            ],
            [
              8099302.931400001,
              2637136.9904999994
            ],
            [
              8099301.132199999,
              2637133.6037999988
            ],
            [
              8099298.0101,
              2637129.2117
            ],
            [
              8099295.4701000005,
              2637127.147999998
            ],
            [
              8099292.612599999,
              2637125.7192
            ],
            [
              8099289.120099999,
              2637124.9255000018
            ],
            [
              8099284.886799999,
              2637124.2375999987
            ],
            [
              8099278.801399998,
              2637123.0733999982
            ],
            [
              8099270.4934,
              2637121.0626000017
            ],
            [
              8099262.873399999,
              2637118.0463000014
            ],
            [
              8099249.697099999,
              2637115.5592
            ],
            [
              8099240.912900001,
              2637113.9188
            ],
            [
              8099238.002500001,
              2637112.6488000005
            ],
            [
              8099236.236900002,
              2637111.497200001
            ]
          ]
        ]
      },
      "properties": {
        "road_id": "VR-007",
        "feature_type": "village_road_polygon",
        "road_type": "6",
        "width": 0.0,
        "pavement": "",
        "status": "",
        "lgd_village_code": "511638",
        "locality": "Lalpur",
        "source": "manual_visual_reference",
        "verification_status": "unverified",
        "sanitization_note": "Ownership/name fields stripped."
      }
    },
    {
      "type": "Feature",
      "id": "VR-008",
      "geometry": {
        "type": "Polygon",
        "coordinates": [
          [
            [
              8099262.783500001,
              2637021.6977999993
            ],
            [
              8099260.025800001,
              2637022.455499999
            ],
            [
              8099256.136399999,
              2637022.2173000015
            ],
            [
              8099247.246399999,
              2637020.0742000006
            ],
            [
              8099244.150800001,
              2637017.3753999993
            ],
            [
              8099240.658300001,
              2637013.0097999983
            ],
            [
              8099240.420200001,
              2637015.3911000006
            ],
            [
              8099239.467700001,
              2637015.787900001
            ],
            [
              8099237.9595,
              2637016.4228999987
            ],
            [
              8099236.610199999,
              2637016.1054
            ],
            [
              8099228.196400002,
              2637012.6129
            ],
            [
              8099227.482000001,
              2637013.6448
            ],
            [
              8099230.418900002,
              2637014.9941999987
            ],
            [
              8099232.641399998,
              2637016.264199998
            ],
            [
              8099234.625799999,
              2637017.4547999986
            ],
            [
              8099239.626400001,
              2637018.804200001
            ],
            [
              8099241.293299999,
              2637019.6772999987
            ],
            [
              8099243.833299998,
              2637021.026700001
            ],
            [
              8099246.293900002,
              2637021.979200002
            ],
            [
              8099249.230799999,
              2637022.8522999994
            ],
            [
              8099252.326400001,
              2637023.9635999985
            ],
            [
              8099254.4695999995,
              2637024.281100001
            ],
            [
              8099257.0889,
              2637024.916099999
            ],
            [
              8099257.962099999,
              2637025.7892000005
            ],
            [
              8099258.597100001,
              2637027.0592
            ],
            [
              8099258.988400001,
              2637028.8495000005
            ],
            [
              8099262.783500001,
              2637021.6977999993
            ]
          ]
        ]
      },
      "properties": {
        "road_id": "VR-008",
        "feature_type": "village_road_polygon",
        "road_type": "6",
        "width": 0.0,
        "pavement": "",
        "status": "",
        "lgd_village_code": "511638",
        "locality": "Lalpur",
        "source": "manual_visual_reference",
        "verification_status": "unverified",
        "sanitization_note": "Ownership/name fields stripped."
      }
    },
    {
      "type": "Feature",
      "id": "VR-009",
      "geometry": {
        "type": "Polygon",
        "coordinates": [
          [
            [
              8099526.6906,
              2637019.1757000014
            ],
            [
              8099504.4285,
              2637016.4673000015
            ],
            [
              8099489.177700002,
              2637014.1565000005
            ],
            [
              8099489.029199999,
              2637014.1396999992
            ],
            [
              8099480.297899999,
              2637013.4782
            ],
            [
              8099480.136700001,
              2637013.472600002
            ],
            [
              8099473.578200001,
              2637013.538800001
            ],
            [
              8099473.432300001,
              2637013.545600001
            ],
            [
              8099467.0823,
              2637014.0747000016
            ],
            [
              8099467.001600001,
              2637014.0830999985
            ],
            [
              8099454.764600001,
              2637015.6044999994
            ],
            [
              8099454.658399999,
              2637015.6206
            ],
            [
              8099426.412900001,
              2637020.768100001
            ],
            [
              8099412.663899999,
              2637022.2668000013
            ],
            [
              8099396.711100001,
              2637021.8110000007
            ],
            [
              8099380.4888,
              2637019.4562
            ],
            [
              8099367.695,
              2637016.7005999982
            ],
            [
              8099347.994199999,
              2637011.6440000013
            ],
            [
              8099321.7886000015,
              2637001.792300001
            ],
            [
              8099309.755899999,
              2636995.972100001
            ],
            [
              8099304.233199999,
              2636992.8616999984
            ],
            [
              8099299.287700001,
              2636988.5584999993
            ],
            [
              8099287.3017,
              2636978.2941999994
            ],
            [
              8099287.243299998,
              2636978.2465999983
            ],
            [
              8099275.8662,
              2636969.3169
            ],
            [
              8099275.829599999,
              2636969.288800001
            ],
            [
              8099266.1061,
              2636962.0128000006
            ],
            [
              8099265.994800001,
              2636961.9351999983
            ],
            [
              8099255.866999999,
              2636955.3781000003
            ],
            [
              8099251.989999998,
              2636951.3779999986
            ],
            [
              8099249.362599999,
              2636947.3742999993
            ],
            [
              8099244.568300001,
              2636938.5084000006
            ],
            [
              8099239.726,
              2636929.8189000003
            ],
            [
              8099239.532200001,
              2636929.5364999995
            ],
            [
              8099234.366,
              2636923.2445
            ],
            [
              8099234.151299998,
              2636923.022999998
            ],
            [
              8099227.338300001,
              2636917.0036999993
            ],
            [
              8099227.299600001,
              2636916.970400002
            ],
            [
              8099227.1085,
              2636916.8286000006
            ],
            [
              8099221.949200001,
              2636913.4551
            ],
            [
              8099221.854699999,
              2636913.397
            ],
            [
              8099221.709800001,
              2636913.3211000003
            ],
            [
              8099216.815000001,
              2636911.006000001
            ],
            [
              8099216.759,
              2636910.9805999994
            ],
            [
              8099203.860599998,
              2636905.3581999987
            ],
            [
              8099203.7454,
              2636905.3121999986
            ],
            [
              8099203.7007,
              2636905.296500001
            ],
            [
              8099170.760000002,
              2636894.1840000004
            ],
            [
              8099170.645500001,
              2636894.149099998
            ],
            [
              8099148.7511,
              2636888.1959999986
            ],
            [
              8099148.692400001,
              2636888.1810000017
            ],
            [
              8099129.669799998,
              2636883.6235000007
            ],
            [
              8099104.956999999,
              2636876.9595
            ],
            [
              8099081.619399998,
              2636871.045600001
            ],
            [
              8099059.309300002,
              2636865.061900001
            ],
            [
              8099034.802900001,
              2636857.9241000004
            ],
            [
              8099034.243700001,
              2636859.844300002
            ],
            [
              8099034.825100001,
              2636862.0967000015
            ],
            [
              8099058.231899999,
              2636868.914000001
            ],
            [
              8099080.609999999,
              2636874.916099999
            ],
            [
              8099103.945,
              2636880.8293000013
            ],
            [
              8099128.6556,
              2636887.492899999
            ],
            [
              8099128.7104,
              2636887.5067999996
            ],
            [
              8099147.730900001,
              2636892.0637999997
            ],
            [
              8099169.538199998,
              2636897.9932999983
            ],
            [
              8099202.3407999985,
              2636909.0592
            ],
            [
              8099215.1325,
              2636914.6350999996
            ],
            [
              8099219.8752,
              2636916.8783
            ],
            [
              8099224.7984,
              2636920.097199999
            ],
            [
              8099231.3829,
              2636925.9147000015
            ],
            [
              8099236.3268,
              2636931.9360999987
            ],
            [
              8099241.061900001,
              2636940.4332999997
            ],
            [
              8099245.884500001,
              2636949.3517999984
            ],
            [
              8099245.911699999,
              2636949.4004999995
            ],
            [
              8099245.9717000015,
              2636949.4978
            ],
            [
              8099248.7498,
              2636953.7311999984
            ],
            [
              8099248.889800001,
              2636953.919399999
            ],
            [
              8099248.985800002,
              2636954.025800001
            ],
            [
              8099253.153000001,
              2636958.3253000006
            ],
            [
              8099253.3035,
              2636958.465399999
            ],
            [
              8099253.5022,
              2636958.6121999994
            ],
            [
              8099263.763999999,
              2636965.256000001
            ],
            [
              8099264.168099999,
              2636965.5584000014
            ],
            [
              8099273.4146,
              2636972.477600001
            ],
            [
              8099284.739999998,
              2636981.366700001
            ],
            [
              8099296.673999999,
              2636991.5863999985
            ],
            [
              8099301.774900001,
              2636996.024700001
            ],
            [
              8099302.0834,
              2636996.2415999994
            ],
            [
              8099307.8473000005,
              2636999.4880000018
            ],
            [
              8099307.957899999,
              2636999.5458000004
            ],
            [
              8099320.128800001,
              2637005.4327999987
            ],
            [
              8099320.295899998,
              2637005.5045000017
            ],
            [
              8099346.697999999,
              2637015.4299999997
            ],
            [
              8099346.894699998,
              2637015.4915000014
            ],
            [
              8099366.738499999,
              2637020.5846999995
            ],
            [
              8099366.814599998,
              2637020.6026999988
            ],
            [
              8099379.7129999995,
              2637023.3808000013
            ],
            [
              8099379.786800001,
              2637023.395300001
            ],
            [
              8099379.8467999995,
              2637023.4048999995
            ],
            [
              8099396.250999998,
              2637025.786200002
            ],
            [
              8099396.481199998,
              2637025.8060999997
            ],
            [
              8099412.686999999,
              2637026.269099999
            ],
            [
              8099412.744100001,
              2637026.2699000016
            ],
            [
              8099412.9608,
              2637026.258200001
            ],
            [
              8099426.917599998,
              2637024.7368
            ],
            [
              8099427.053800002,
              2637024.7172
            ],
            [
              8099455.314300001,
              2637019.5669
            ],
            [
              8099467.4549,
              2637018.057599999
            ],
            [
              8099473.6917,
              2637017.537799999
            ],
            [
              8099480.081300002,
              2637017.473299999
            ],
            [
              8099488.6525,
              2637018.1226000004
            ],
            [
              8099503.858199999,
              2637020.4265
            ],
            [
              8099503.916299999,
              2637020.4343999997
            ],
            [
              8099526.1613,
              2637023.1407999992
            ],
            [
              8099544.122200001,
              2637026.178199999
            ],
            [
              8099576.0185,
              2637031.0753000006
            ],
            [
              8099589.723099999,
              2637033.1937000006
            ],
            [
              8099608.029199999,
              2637035.7712000012
            ],
            [
              8099632.1888,
              2637039.9147000015
            ],
            [
              8099633.749699999,
              2637036.1240000017
            ],
            [
              8099608.675799999,
              2637031.8236999996
            ],
            [
              8099608.616599999,
              2637031.8145000003
            ],
            [
              8099590.307500001,
              2637029.2366999984
            ],
            [
              8099576.627599999,
              2637027.1218999997
            ],
            [
              8099544.759199999,
              2637022.2293
            ],
            [
              8099526.782499999,
              2637019.189100001
            ],
            [
              8099526.6906,
              2637019.1757000014
            ]
          ]
        ]
      },
      "properties": {
        "road_id": "VR-009",
        "feature_type": "village_road_polygon",
        "road_type": "6",
        "width": 0.0,
        "pavement": "",
        "status": "",
        "lgd_village_code": "511638",
        "locality": "Lalpur",
        "source": "manual_visual_reference",
        "verification_status": "unverified",
        "sanitization_note": "Ownership/name fields stripped."
      }
    },
    {
      "type": "Feature",
      "id": "VR-010",
      "geometry": {
        "type": "Polygon",
        "coordinates": [
          [
            [
              8099262.706,
              2636789.8592000008
            ],
            [
              8099212.951299999,
              2636780.5964
            ],
            [
              8099211.957600001,
              2636786.0058999993
            ],
            [
              8099261.712200001,
              2636795.268599998
            ],
            [
              8099261.7782000005,
              2636795.274599999
            ],
            [
              8099262.706,
              2636789.8592000008
            ]
          ]
        ]
      },
      "properties": {
        "road_id": "VR-010",
        "feature_type": "village_road_polygon",
        "road_type": "5",
        "width": 0.0,
        "pavement": "",
        "status": "",
        "lgd_village_code": "511638",
        "locality": "Lalpur",
        "source": "manual_visual_reference",
        "verification_status": "unverified",
        "sanitization_note": "Ownership/name fields stripped."
      }
    },
    {
      "type": "Feature",
      "id": "VR-011",
      "geometry": {
        "type": "Polygon",
        "coordinates": [
          [
            [
              8099176.149900001,
              2636768.4591000006
            ],
            [
              8099168.378600001,
              2636766.5621999986
            ],
            [
              8099159.293400001,
              2636799.2162999995
            ],
            [
              8099159.270300001,
              2636799.303199999
            ],
            [
              8099138.4026999995,
              2636881.4065999985
            ],
            [
              8099134.625599999,
              2636884.810800001
            ],
            [
              8099137.3704,
              2636885.4684000015
            ],
            [
              8099145.150899999,
              2636887.3324999996
            ],
            [
              8099147.929200001,
              2636887.9981000014
            ],
            [
              8099146.247299999,
              2636883.0188999996
            ],
            [
              8099167.012699999,
              2636801.317400001
            ],
            [
              8099176.128800001,
              2636768.5522999987
            ],
            [
              8099176.149900001,
              2636768.4591000006
            ]
          ]
        ]
      },
      "properties": {
        "road_id": "VR-011",
        "feature_type": "village_road_polygon",
        "road_type": "5",
        "width": 0.0,
        "pavement": "",
        "status": "",
        "lgd_village_code": "511638",
        "locality": "Lalpur",
        "source": "manual_visual_reference",
        "verification_status": "unverified",
        "sanitization_note": "Ownership/name fields stripped."
      }
    },
    {
      "type": "Feature",
      "id": "VR-012",
      "geometry": {
        "type": "Polygon",
        "coordinates": [
          [
            [
              8099074.940499999,
              2636873.3955000006
            ],
            [
              8099074.440200001,
              2636873.2613000013
            ],
            [
              8099072.291000001,
              2636876.9604
            ],
            [
              8099072.2795,
              2636876.9827999994
            ],
            [
              8099070.4274,
              2636881.083799999
            ],
            [
              8099070.420299999,
              2636881.1011999995
            ],
            [
              8099070.418400001,
              2636881.1066999994
            ],
            [
              8099068.764400002,
              2636886.0025000013
            ],
            [
              8099066.415899999,
              2636893.1471999995
            ],
            [
              8099066.414000001,
              2636893.1532000005
            ],
            [
              8099064.958799999,
              2636897.981800001
            ],
            [
              8099064.956300002,
              2636897.9908000007
            ],
            [
              8099063.765700001,
              2636902.5549000017
            ],
            [
              8099063.762400001,
              2636902.5689999983
            ],
            [
              8099063.2663,
              2636905.0494999997
            ],
            [
              8099063.265299998,
              2636905.0551000014
            ],
            [
              8099063.261700001,
              2636905.088300001
            ],
            [
              8099063.195500001,
              2636906.708900001
            ],
            [
              8099063.195300002,
              2636906.7190999985
            ],
            [
              8099063.197500002,
              2636906.751600001
            ],
            [
              8099063.462000001,
              2636908.7690000013
            ],
            [
              8099063.4637,
              2636908.7798999995
            ],
            [
              8099063.475499999,
              2636908.8235
            ],
            [
              8099064.0383,
              2636910.3132000007
            ],
            [
              8099064.055599999,
              2636910.349800002
            ],
            [
              8099064.060199998,
              2636910.3572999984
            ],
            [
              8099064.886999998,
              2636911.6801999994
            ],
            [
              8099064.907499999,
              2636911.7084
            ],
            [
              8099064.930599999,
              2636911.7325999998
            ],
            [
              8099066.7826999985,
              2636913.419300001
            ],
            [
              8099066.790399998,
              2636913.425999999
            ],
            [
              8099066.826099999,
              2636913.4510000013
            ],
            [
              8099066.835499998,
              2636913.456099998
            ],
            [
              8099069.944400001,
              2636915.076699998
            ],
            [
              8099069.9736,
              2636915.0896000005
            ],
            [
              8099074.108100001,
              2636916.611200001
            ],
            [
              8099074.124299999,
              2636916.6163999997
            ],
            [
              8099079.812800001,
              2636918.2701000012
            ],
            [
              8099079.834800001,
              2636918.2754000016
            ],
            [
              8099088.497099999,
              2636919.961599998
            ],
            [
              8099093.309599999,
              2636921.016399998
            ],
            [
              8099097.111299999,
              2636922.2945999987
            ],
            [
              8099099.4021999985,
              2636923.5709000006
            ],
            [
              8099099.567499999,
              2636923.671100002
            ],
            [
              8099099.8268,
              2636923.2435999997
            ],
            [
              8099099.6576000005,
              2636923.140999999
            ],
            [
              8099099.651299998,
              2636923.1372999996
            ],
            [
              8099097.3345,
              2636921.846500002
            ],
            [
              8099097.298300002,
              2636921.829999998
            ],
            [
              8099097.2925,
              2636921.8280000016
            ],
            [
              8099093.456,
              2636920.5381000005
            ],
            [
              8099093.429900002,
              2636920.5309000015
            ],
            [
              8099088.601199999,
              2636919.472600002
            ],
            [
              8099088.5955,
              2636919.4714
            ],
            [
              8099079.941500001,
              2636917.786800001
            ],
            [
              8099074.2722,
              2636916.138799999
            ],
            [
              8099070.1613,
              2636914.6259000003
            ],
            [
              8099067.095400002,
              2636913.027800001
            ],
            [
              8099065.2927,
              2636911.3861000016
            ],
            [
              8099064.497299999,
              2636910.1132999994
            ],
            [
              8099063.954,
              2636908.6752999984
            ],
            [
              8099063.695999999,
              2636906.707800001
            ],
            [
              8099063.760499999,
              2636905.1283
            ],
            [
              8099064.2513,
              2636902.6741000004
            ],
            [
              8099065.438900001,
              2636898.1215999983
            ],
            [
              8099066.891899999,
              2636893.3004
            ],
            [
              8099069.2388,
              2636886.160599999
            ],
            [
              8099070.888099998,
              2636881.2784
            ],
            [
              8099072.729899999,
              2636877.200199999
            ],
            [
              8099074.940499999,
              2636873.3955000006
            ]
          ]
        ]
      },
      "properties": {
        "road_id": "VR-012",
        "feature_type": "village_road_polygon",
        "road_type": "8",
        "width": 0.0,
        "pavement": "",
        "status": "",
        "lgd_village_code": "511638",
        "locality": "Lalpur",
        "source": "manual_visual_reference",
        "verification_status": "unverified",
        "sanitization_note": "Ownership/name fields stripped."
      }
    },
    {
      "type": "Feature",
      "id": "VR-013",
      "geometry": {
        "type": "Polygon",
        "coordinates": [
          [
            [
              8099099.651299998,
              2636923.1372999996
            ],
            [
              8099099.697099999,
              2636923.4574000016
            ],
            [
              8099099.547800001,
              2636924.898600001
            ],
            [
              8099101.188200001,
              2636925.9569999985
            ],
            [
              8099106.427000001,
              2636929.5023999996
            ],
            [
              8099109.284499999,
              2636932.3599000014
            ],
            [
              8099111.8774,
              2636935.905299999
            ],
            [
              8099113.729499999,
              2636941.3027999997
            ],
            [
              8099115.211199999,
              2636945.1658000015
            ],
            [
              8099116.481199998,
              2636949.9283000007
            ],
            [
              8099116.375300001,
              2636954.6378999986
            ],
            [
              8099118.3862,
              2636955.1669999994
            ],
            [
              8099119.285799999,
              2636948.9758
            ],
            [
              8099119.3387,
              2636947.282400001
            ],
            [
              8099118.7566,
              2636944.5308
            ],
            [
              8099117.169100001,
              2636940.667800002
            ],
            [
              8099114.999499999,
              2636935.1116000004
            ],
            [
              8099112.4065999985,
              2636931.0370000005
            ],
            [
              8099108.914099999,
              2636927.5973999985
            ],
            [
              8099104.945300002,
              2636925.3748999983
            ],
            [
              8099101.452799998,
              2636923.6286000013
            ],
            [
              8099099.651299998,
              2636923.1372999996
            ]
          ]
        ]
      },
      "properties": {
        "road_id": "VR-013",
        "feature_type": "village_road_polygon",
        "road_type": "6",
        "width": 0.0,
        "pavement": "",
        "status": "",
        "lgd_village_code": "511638",
        "locality": "Lalpur",
        "source": "manual_visual_reference",
        "verification_status": "unverified",
        "sanitization_note": "Ownership/name fields stripped."
      }
    },
    {
      "type": "Feature",
      "id": "VR-014",
      "geometry": {
        "type": "Polygon",
        "coordinates": [
          [
            [
              8099148.331900001,
              2637091.4560000002
            ],
            [
              8099148.370999999,
              2637091.4378999993
            ],
            [
              8099150.8576,
              2637090.009399999
            ],
            [
              8099153.9023,
              2637088.2771000005
            ],
            [
              8099155.2837000005,
              2637087.8541
            ],
            [
              8099156.765000001,
              2637087.6521999985
            ],
            [
              8099157.751499999,
              2637087.745000001
            ],
            [
              8099159.5711,
              2637088.590300001
            ],
            [
              8099159.590999998,
              2637088.5984999985
            ],
            [
              8099159.608600002,
              2637088.604200002
            ],
            [
              8099161.672400001,
              2637089.1862999983
            ],
            [
              8099161.696800001,
              2637089.1919
            ],
            [
              8099161.740200002,
              2637089.195700001
            ],
            [
              8099161.755800001,
              2637089.1952
            ],
            [
              8099163.449099999,
              2637089.089400001
            ],
            [
              8099163.477000002,
              2637089.086100001
            ],
            [
              8099163.5075,
              2637089.0786999986
            ],
            [
              8099165.73,
              2637088.3907999992
            ],
            [
              8099165.741599999,
              2637088.3869000003
            ],
            [
              8099165.783300001,
              2637088.3671000004
            ],
            [
              8099167.793900002,
              2637087.150199998
            ],
            [
              8099170.230500001,
              2637085.750500001
            ],
            [
              8099174.5112,
              2637085.3850999996
            ],
            [
              8099174.956500001,
              2637085.358600002
            ],
            [
              8099175.204,
              2637085.393100001
            ],
            [
              8099175.3112,
              2637085.4367000014
            ],
            [
              8099175.354800001,
              2637085.5001999997
            ],
            [
              8099175.354800001,
              2637085.6033999994
            ],
            [
              8099175.198800001,
              2637085.9439000003
            ],
            [
              8099174.957199998,
              2637086.170400001
            ],
            [
              8099174.936700001,
              2637086.1920999996
            ],
            [
              8099174.9322,
              2637086.1975999996
            ],
            [
              8099173.9267,
              2637087.467599999
            ],
            [
              8099173.906199999,
              2637087.4978
            ],
            [
              8099173.892999999,
              2637087.5243000016
            ],
            [
              8099173.099199999,
              2637089.3764000013
            ],
            [
              8099173.558800001,
              2637089.5733000003
            ],
            [
              8099174.339400001,
              2637087.7518999986
            ],
            [
              8099175.3127,
              2637086.522500001
            ],
            [
              8099176.121800002,
              2637085.7639000006
            ],
            [
              8099177.173300002,
              2637085.2005000003
            ],
            [
              8099177.5374,
              2637085.0055
            ],
            [
              8099179.802900001,
              2637084.6451000012
            ],
            [
              8099183.751899999,
              2637084.6977999993
            ],
            [
              8099183.765500002,
              2637084.6975000016
            ],
            [
              8099188.1965,
              2637084.4864999987
            ],
            [
              8099193.897399999,
              2637084.8559999987
            ],
            [
              8099193.9048000015,
              2637084.856400002
            ],
            [
              8099199.9146,
              2637085.0672000013
            ],
            [
              8099203.014400002,
              2637085.7501999997
            ],
            [
              8099203.024799999,
              2637085.7523000017
            ],
            [
              8099203.046700001,
              2637085.7551999986
            ],
            [
              8099207.333000001,
              2637086.125599999
            ],
            [
              8099207.355599999,
              2637086.1264999993
            ],
            [
              8099213.120099999,
              2637086.0736000016
            ],
            [
              8099224.748599999,
              2637086.3907999992
            ],
            [
              8099236.998399999,
              2637087.5753000006
            ],
            [
              8099237.142200001,
              2637087.0868000016
            ],
            [
              8099224.788199998,
              2637085.8922999986
            ],
            [
              8099224.7709,
              2637085.8911999986
            ],
            [
              8099213.1292,
              2637085.5736999996
            ],
            [
              8099213.121300001,
              2637085.5736000016
            ],
            [
              8099207.364100002,
              2637085.6264000013
            ],
            [
              8099203.105999999,
              2637085.2584000006
            ],
            [
              8099199.999899998,
              2637084.574000001
            ],
            [
              8099199.989500001,
              2637084.5720000006
            ],
            [
              8099199.9549,
              2637084.5683000013
            ],
            [
              8099193.926100001,
              2637084.356800001
            ],
            [
              8099188.2148,
              2637083.9866000004
            ],
            [
              8099188.198600002,
              2637083.9860999994
            ],
            [
              8099188.186700001,
              2637083.9864000008
            ],
            [
              8099183.749299999,
              2637084.1977000013
            ],
            [
              8099179.786499999,
              2637084.1449000016
            ],
            [
              8099179.7456,
              2637084.147999998
            ],
            [
              8099177.817200001,
              2637084.4547999986
            ],
            [
              8099175.394299999,
              2637084.831700001
            ],
            [
              8099174.4783000015,
              2637084.8861000016
            ],
            [
              8099174.471900001,
              2637084.886599999
            ],
            [
              8099170.1327,
              2637085.2569999993
            ],
            [
              8099170.110599998,
              2637085.2599
            ],
            [
              8099170.068500001,
              2637085.2712000012
            ],
            [
              8099170.0295,
              2637085.2892999984
            ],
            [
              8099167.542100001,
              2637086.718199998
            ],
            [
              8099167.5374,
              2637086.721000001
            ],
            [
              8099165.5528,
              2637087.922200002
            ],
            [
              8099163.3882,
              2637088.5922
            ],
            [
              8099161.767099999,
              2637088.693500001
            ],
            [
              8099159.763599999,
              2637088.1284000017
            ],
            [
              8099157.056299999,
              2637086.871199999
            ],
            [
              8099157.016800001,
              2637086.8528000005
            ],
            [
              8099153.0614,
              2637085.014800001
            ],
            [
              8099152.831,
              2637085.4580000006
            ],
            [
              8099152.850699998,
              2637085.468199998
            ],
            [
              8099155.3396999985,
              2637086.624499999
            ],
            [
              8099155.4474,
              2637086.810899999
            ],
            [
              8099155.3759,
              2637086.9536999986
            ],
            [
              8099155.074299999,
              2637087.1919
            ],
            [
              8099153.7172,
              2637087.8112000003
            ],
            [
              8099153.679099999,
              2637087.8288000003
            ],
            [
              8099150.6094,
              2637089.5753000006
            ],
            [
              8099148.143599998,
              2637090.9919000007
            ],
            [
              8099146.805399999,
              2637091.438000001
            ],
            [
              8099146.238699999,
              2637091.3071999997
            ],
            [
              8099145.429299999,
              2637090.6882999986
            ],
            [
              8099144.669500001,
              2637089.1180000007
            ],
            [
              8099144.1459,
              2637087.442400001
            ],
            [
              8099143.6611,
              2637087.5604000017
            ],
            [
              8099143.6686,
              2637087.591499999
            ],
            [
              8099144.197799999,
              2637089.2848000005
            ],
            [
              8099144.201499999,
              2637089.2958000004
            ],
            [
              8099144.2113999985,
              2637089.3192000017
            ],
            [
              8099145.005100001,
              2637090.9596000016
            ],
            [
              8099145.013700001,
              2637090.9756999984
            ],
            [
              8099145.038699999,
              2637091.0113999993
            ],
            [
              8099145.069499999,
              2637091.042199999
            ],
            [
              8099145.078299999,
              2637091.0493
            ],
            [
              8099145.977899998,
              2637091.7371999994
            ],
            [
              8099146.004799999,
              2637091.7551000006
            ],
            [
              8099146.044300001,
              2637091.773499999
            ],
            [
              8099146.073600002,
              2637091.782200001
            ],
            [
              8099146.761500001,
              2637091.9409999996
            ],
            [
              8099146.774300002,
              2637091.943599999
            ],
            [
              8099146.817699999,
              2637091.9474
            ],
            [
              8099146.861099999,
              2637091.943599999
            ],
            [
              8099146.8966999985,
              2637091.9345000014
            ],
            [
              8099148.3255,
              2637091.458299998
            ],
            [
              8099148.331900001,
              2637091.4560000002
            ]
          ]
        ]
      },
      "properties": {
        "road_id": "VR-014",
        "feature_type": "village_road_polygon",
        "road_type": "8",
        "width": 0.0,
        "pavement": "",
        "status": "",
        "lgd_village_code": "511638",
        "locality": "Lalpur",
        "source": "manual_visual_reference",
        "verification_status": "unverified",
        "sanitization_note": "Ownership/name fields stripped."
      }
    },
    {
      "type": "Feature",
      "id": "VR-015",
      "geometry": {
        "type": "Polygon",
        "coordinates": [
          [
            [
              8099277.878699999,
              2636997.9877999984
            ],
            [
              8099278.910599999,
              2636996.3209999986
            ],
            [
              8099281.0537,
              2636995.050999999
            ],
            [
              8099283.0381000005,
              2636994.416000001
            ],
            [
              8099285.101799998,
              2636994.336599998
            ],
            [
              8099288.7531,
              2636994.8922000006
            ],
            [
              8099294.3094,
              2636994.9716
            ],
            [
              8099300.252999999,
              2636994.7005000003
            ],
            [
              8099286.925900001,
              2636983.2386999987
            ],
            [
              8099284.704999998,
              2636989.0978000015
            ],
            [
              8099282.006200001,
              2636991.4791
            ],
            [
              8099278.989999998,
              2636994.0984999985
            ],
            [
              8099275.497499999,
              2636996.1622
            ],
            [
              8099274.3862,
              2636995.844700001
            ],
            [
              8099267.4012,
              2636994.336599998
            ],
            [
              8099267.242400002,
              2636996.797200002
            ],
            [
              8099265.258099999,
              2636996.4003
            ],
            [
              8099264.8440999985,
              2636998.8839999996
            ],
            [
              8099264.850099999,
              2636999.2600999996
            ],
            [
              8099271.8462000005,
              2636999.4959999993
            ],
            [
              8099273.036800001,
              2637000.4485
            ],
            [
              8099274.3862,
              2637002.988499999
            ],
            [
              8099274.465599999,
              2637005.0522000007
            ],
            [
              8099273.989300001,
              2637006.6396999992
            ],
            [
              8099273.3543,
              2637007.7509999983
            ],
            [
              8099271.449299999,
              2637008.465399999
            ],
            [
              8099269.492199998,
              2637009.0557000004
            ],
            [
              8099272.583799999,
              2637010.6964000016
            ],
            [
              8099277.005600002,
              2637008.9415999986
            ],
            [
              8099276.053100001,
              2637006.7985000014
            ],
            [
              8099277.5612,
              2637005.607900001
            ],
            [
              8099277.9580999985,
              2637004.4965999983
            ],
            [
              8099277.878699999,
              2637002.591600001
            ],
            [
              8099277.6406,
              2636999.337200001
            ],
            [
              8099277.878699999,
              2636997.9877999984
            ]
          ]
        ]
      },
      "properties": {
        "road_id": "VR-015",
        "feature_type": "village_road_polygon",
        "road_type": "6",
        "width": 0.0,
        "pavement": "",
        "status": "",
        "lgd_village_code": "511638",
        "locality": "Lalpur",
        "source": "manual_visual_reference",
        "verification_status": "unverified",
        "sanitization_note": "Ownership/name fields stripped."
      }
    },
    {
      "type": "Feature",
      "id": "VR-016",
      "geometry": {
        "type": "Polygon",
        "coordinates": [
          [
            [
              8099217.695300002,
              2637027.2705999985
            ],
            [
              8099218.080400001,
              2637027.589499999
            ],
            [
              8099220.938900001,
              2637024.122299999
            ],
            [
              8099223.214499999,
              2637021.343899999
            ],
            [
              8099223.218199998,
              2637021.339299999
            ],
            [
              8099225.569499999,
              2637018.3275999986
            ],
            [
              8099226.6778,
              2637017.034400001
            ],
            [
              8099226.693399999,
              2637017.0141000003
            ],
            [
              8099227.328400001,
              2637016.088100001
            ],
            [
              8099227.3387,
              2637016.0716999993
            ],
            [
              8099227.349599998,
              2637016.0505000018
            ],
            [
              8099227.9054000005,
              2637014.8330999985
            ],
            [
              8099228.2782000005,
              2637014.0106000006
            ],
            [
              8099227.823899999,
              2637013.8018999994
            ],
            [
              8099227.450199999,
              2637014.6261
            ],
            [
              8099226.903700002,
              2637015.8231999986
            ],
            [
              8099226.2886000015,
              2637016.7203
            ],
            [
              8099225.1853,
              2637018.0075000003
            ],
            [
              8099225.1789,
              2637018.0154
            ],
            [
              8099222.8259,
              2637021.0293000005
            ],
            [
              8099220.552499998,
              2637023.8049000017
            ],
            [
              8099217.695300002,
              2637027.2705999985
            ]
          ]
        ]
      },
      "properties": {
        "road_id": "VR-016",
        "feature_type": "village_road_polygon",
        "road_type": "8",
        "width": 0.0,
        "pavement": "",
        "status": "",
        "lgd_village_code": "511638",
        "locality": "Lalpur",
        "source": "manual_visual_reference",
        "verification_status": "unverified",
        "sanitization_note": "Ownership/name fields stripped."
      }
    },
    {
      "type": "Feature",
      "id": "VR-017",
      "geometry": {
        "type": "Polygon",
        "coordinates": [
          [
            [
              8099302.0834,
              2636996.2415999994
            ],
            [
              8099305.5216999985,
              2637001.0199000016
            ],
            [
              8099304.7809000015,
              2637007.2641000003
            ],
            [
              8099304.463399999,
              2637012.0265999995
            ],
            [
              8099306.050900001,
              2637012.4499000013
            ],
            [
              8099305.468800001,
              2637018.0590999983
            ],
            [
              8099306.209600002,
              2637020.228700001
            ],
            [
              8099306.950399999,
              2637022.557
            ],
            [
              8099308.908399999,
              2637020.9166
            ],
            [
              8099309.0671,
              2637015.6248999983
            ],
            [
              8099309.966699999,
              2637014.4078
            ],
            [
              8099308.961300001,
              2637008.1636999995
            ],
            [
              8099309.384599999,
              2637005.0945000015
            ],
            [
              8099307.7971,
              2637004.776999999
            ],
            [
              8099308.721000001,
              2636999.914900001
            ],
            [
              8099307.8473000005,
              2636999.4880000018
            ],
            [
              8099302.862599999,
              2636996.6805000007
            ],
            [
              8099302.0834,
              2636996.2415999994
            ]
          ]
        ]
      },
      "properties": {
        "road_id": "VR-017",
        "feature_type": "village_road_polygon",
        "road_type": "6",
        "width": 0.0,
        "pavement": "",
        "status": "",
        "lgd_village_code": "511638",
        "locality": "Lalpur",
        "source": "manual_visual_reference",
        "verification_status": "unverified",
        "sanitization_note": "Ownership/name fields stripped."
      }
    },
    {
      "type": "Feature",
      "id": "VR-018",
      "geometry": {
        "type": "Polygon",
        "coordinates": [
          [
            [
              8099249.0715,
              2637060.8356
            ],
            [
              8099246.289099999,
              2637068.6185999997
            ],
            [
              8099248.080499999,
              2637068.5610999987
            ],
            [
              8099252.5254999995,
              2637068.2435999997
            ],
            [
              8099255.938700002,
              2637068.1642000005
            ],
            [
              8099268.479899999,
              2637070.4661
            ],
            [
              8099269.670600001,
              2637066.100499999
            ],
            [
              8099254.827399999,
              2637063.5604999997
            ],
            [
              8099250.461800002,
              2637062.1317000017
            ],
            [
              8099249.0715,
              2637060.8356
            ]
          ]
        ]
      },
      "properties": {
        "road_id": "VR-018",
        "feature_type": "village_road_polygon",
        "road_type": "6",
        "width": 0.0,
        "pavement": "",
        "status": "",
        "lgd_village_code": "511638",
        "locality": "Lalpur",
        "source": "manual_visual_reference",
        "verification_status": "unverified",
        "sanitization_note": "Ownership/name fields stripped."
      }
    },
    {
      "type": "Feature",
      "id": "VR-019",
      "geometry": {
        "type": "Polygon",
        "coordinates": [
          [
            [
              8099356.752300002,
              2637013.891899999
            ],
            [
              8099355.936900001,
              2637012.1587000005
            ],
            [
              8099355.500399999,
              2637010.4124
            ],
            [
              8099355.579700001,
              2637006.4833999984
            ],
            [
              8099354.944699999,
              2637003.149599999
            ],
            [
              8099354.508200001,
              2637001.0064999983
            ],
            [
              8099353.5557,
              2636999.3792999983
            ],
            [
              8099351.888799999,
              2636996.958299998
            ],
            [
              8099349.666299999,
              2636995.1724000014
            ],
            [
              8099347.562800001,
              2636992.8308000006
            ],
            [
              8099341.7623,
              2636985.6416000016
            ],
            [
              8099340.486400001,
              2636987.0141000003
            ],
            [
              8099343.554400001,
              2636990.6083000004
            ],
            [
              8099346.570700001,
              2636993.822999999
            ],
            [
              8099347.790399998,
              2636995.328499999
            ],
            [
              8099350.669100001,
              2636998.101300001
            ],
            [
              8099353.0821,
              2637000.747200001
            ],
            [
              8099354.0134,
              2637002.567499999
            ],
            [
              8099354.3521,
              2637004.3455
            ],
            [
              8099354.436700001,
              2637006.568
            ],
            [
              8099354.4791,
              2637009.0868999995
            ],
            [
              8099354.098099999,
              2637010.780200001
            ],
            [
              8099353.148200002,
              2637012.9668999985
            ],
            [
              8099356.752300002,
              2637013.891899999
            ]
          ]
        ]
      },
      "properties": {
        "road_id": "VR-019",
        "feature_type": "village_road_polygon",
        "road_type": "6",
        "width": 0.0,
        "pavement": "",
        "status": "",
        "lgd_village_code": "511638",
        "locality": "Lalpur",
        "source": "manual_visual_reference",
        "verification_status": "unverified",
        "sanitization_note": "Ownership/name fields stripped."
      }
    }
  ]
}