{
  "type": "FeatureCollection",
  "name": "sanitized_lalpur_road_polygons_4326",
  "crs": {
    "type": "name",
    "properties": {
      "name": "urn:ogc:def:crs:OGC:1.3:CRS84"
    }
  },
  "features": [
    {
      "type": "Feature",
      "id": "VR-001",
      "geometry": {
        "type": "Polygon",
        "coordinates": [
          [
            [
              72.75669807491963,
              23.039456753544908
            ],
            [
              72.75660976064572,
              23.039441623982217
            ],
            [
              72.75642383543305,
              23.040373370242726
            ],
            [
              72.75640835117248,
              23.04039304961502
            ],
            [
              72.75638617176813,
              23.040402416452928
            ],
            [
              72.75650204006674,
              23.040448894344223
            ],
            [
              72.75650254312332,
              23.040449104314764
            ],
            [
              72.75653078885078,
              23.040461398335946
            ],
            [
              72.75651233565821,
              23.040432419097524
            ],
            [
              72.7565092724031,
              23.040402920713017
            ],
            [
              72.75669807491963,
              23.039456753544908
            ]
          ]
        ]
      },
      "properties": {
        "road_id": "VR-001",
        "feature_type": "village_road_polygon",
        "road_type": "5",
        "width": 0.0,
        "pavement": "",
        "status": "",
        "lgd_village_code": "511638",
        "locality": "Lalpur",
        "source": "manual_visual_reference",
        "verification_status": "unverified",
        "sanitization_note": "Ownership/name fields stripped."
      }
    },
    {
      "type": "Feature",
      "id": "VR-002",
      "geometry": {
        "type": "Polygon",
        "coordinates": [
          [
            [
              72.7566742453101,
              23.042140495487438
            ],
            [
              72.75663863339726,
              23.042139403489124
            ],
            [
              72.75663853009102,
              23.042140521940073
            ],
            [
              72.75661431600253,
              23.042335820859815
            ],
            [
              72.75661425222214,
              23.042336435056285
            ],
            [
              72.75657864030934,
              23.04276506829906
            ],
            [
              72.75652333283391,
              23.04313836827609
            ],
            [
              72.75652316844224,
              23.043140601854876
            ],
            [
              72.75652344153005,
              23.043143472772318
            ],
            [
              72.75652425181048,
              23.04314625606594
            ],
            [
              72.75652557592718,
              23.04314886824523
            ],
            [
              72.75652737165942,
              23.04315122829956
            ],
            [
              72.7565295860066,
              23.04315326679133
            ],
            [
              72.75653215159508,
              23.043154919242625
            ],
            [
              72.75653499027138,
              23.043156137708493
            ],
            [
              72.75653801489894,
              23.043156883336827
            ],
            [
              72.75654113474792,
              23.043157134635074
            ],
            [
              72.75654425459688,
              23.043156883336827
            ],
            [
              72.75654727922446,
              23.043156137708493
            ],
            [
              72.75655011790076,
              23.043154919242625
            ],
            [
              72.7565526834892,
              23.04315326679133
            ],
            [
              72.75655489783638,
              23.04315122829956
            ],
            [
              72.75655669446695,
              23.04314886824523
            ],
            [
              72.75655801768536,
              23.04314625606594
            ],
            [
              72.75655882796575,
              23.043143472772318
            ],
            [
              72.7565589366619,
              23.043142834606936
            ],
            [
              72.75661431600253,
              23.042769050230447
            ],
            [
              72.75661442829194,
              23.042768076446944
            ],
            [
              72.75665005457779,
              23.04233926300539
            ],
            [
              72.75667338023246,
              23.042151135237347
            ],
            [
              72.7566742453101,
              23.042140495487438
            ]
          ]
        ]
      },
      "properties": {
        "road_id": "VR-002",
        "feature_type": "village_road_polygon",
        "road_type": "6",
        "width": 0.0,
        "pavement": "",
        "status": "",
        "lgd_village_code": "511638",
        "locality": "Lalpur",
        "source": "manual_visual_reference",
        "verification_status": "unverified",
        "sanitization_note": "Ownership/name fields stripped."
      }
    },
    {
      "type": "Feature",
      "id": "VR-003",
      "geometry": {
        "type": "Polygon",
        "coordinates": [
          [
            [
              72.75700352277747,
              23.041273198046067
            ],
            [
              72.75697575046213,
              23.041259635190276
            ],
            [
              72.75691548518469,
              23.04136414114573
            ],
            [
              72.75688139322135,
              23.04142326065813
            ],
            [
              72.75686879434949,
              23.041445109005288
            ],
            [
              72.75686844131157,
              23.04144575957841
            ],
            [
              72.75680284183795,
              23.04157480363081
            ],
            [
              72.7568022929673,
              23.041576024590906
            ],
            [
              72.75673430128008,
              23.041751037572116
            ],
            [
              72.75673402370064,
              23.041751823713962
            ],
            [
              72.75667555415542,
              23.041934671422187
            ],
            [
              72.75667532418674,
              23.041935474095883
            ],
            [
              72.75665108135217,
              23.042031272466385
            ],
            [
              72.75665091067225,
              23.042032041247033
            ],
            [
              72.75665072831424,
              23.042033323374746
            ],
            [
              72.75663863339726,
              23.042139403489124
            ],
            [
              72.7566742453101,
              23.042140495487438
            ],
            [
              72.75667701301948,
              23.042106465806913
            ],
            [
              72.75668195914344,
              23.04203682091334
            ],
            [
              72.7567058435502,
              23.041942441072045
            ],
            [
              72.75676405887219,
              23.04176038778267
            ],
            [
              72.75683163463943,
              23.04158644532355
            ],
            [
              72.75689675261604,
              23.041458349449126
            ],
            [
              72.75700352277747,
              23.041273198046067
            ]
          ]
        ]
      },
      "properties": {
        "road_id": "VR-003",
        "feature_type": "village_road_polygon",
        "road_type": "6",
        "width": 0.0,
        "pavement": "",
        "status": "",
        "lgd_village_code": "511638",
        "locality": "Lalpur",
        "source": "manual_visual_reference",
        "verification_status": "unverified",
        "sanitization_note": "Ownership/name fields stripped."
      }
    },
    {
      "type": "Feature",
      "id": "VR-004",
      "geometry": {
        "type": "Polygon",
        "coordinates": [
          [
            [
              72.75806442504319,
              23.041237834758775
            ],
            [
              72.75806070871286,
              23.04121911773149
            ],
            [
              72.75805372880308,
              23.04121913426451
            ],
            [
              72.75805230317675,
              23.041213556851098
            ],
            [
              72.75805301643908,
              23.041185341600066
            ],
            [
              72.75805627462861,
              23.04108772978091
            ],
            [
              72.75806050299866,
              23.041016381457332
            ],
            [
              72.75806656393188,
              23.0409494540337
            ],
            [
              72.75807291232599,
              23.040949608617716
            ],
            [
              72.75812282451979,
              23.04095617058515
            ],
            [
              72.75821551987735,
              23.0409709337707
            ],
            [
              72.75825533141412,
              23.040972574675653
            ],
            [
              72.75827018595565,
              23.0409654662918
            ],
            [
              72.75830167909287,
              23.04095343601876
            ],
            [
              72.75833851900265,
              23.04094195381527
            ],
            [
              72.75837476512608,
              23.04093703275252
            ],
            [
              72.75842348974707,
              23.040937579169892
            ],
            [
              72.75848290970985,
              23.040925003303602
            ],
            [
              72.75854767734356,
              23.040904771804954
            ],
            [
              72.75854292345905,
              23.04089000778545
            ],
            [
              72.75851915583327,
              23.040896569755784
            ],
            [
              72.75847827440299,
              23.040911524731353
            ],
            [
              72.75847824835185,
              23.040911530517928
            ],
            [
              72.7584728081545,
              23.04091352027105
            ],
            [
              72.7584436919595,
              23.040922815980654
            ],
            [
              72.7584205181201,
              23.04092336239808
            ],
            [
              72.75838427199673,
              23.040924456059553
            ],
            [
              72.75832960591842,
              23.04092336239808
            ],
            [
              72.75830583829261,
              23.04092883070536
            ],
            [
              72.75826483828476,
              23.04094140657127
            ],
            [
              72.75823453451694,
              23.040945781216532
            ],
            [
              72.75818640368236,
              23.04093812641389
            ],
            [
              72.75809014380975,
              23.040922268736576
            ],
            [
              72.75795110077344,
              23.040902584481664
            ],
            [
              72.75782810164813,
              23.040859386906288
            ],
            [
              72.7577544209302,
              23.040840249059944
            ],
            [
              72.75770629099392,
              23.04082767318457
            ],
            [
              72.75763855263159,
              23.04080580076433
            ],
            [
              72.75757616104184,
              23.04079103756065
            ],
            [
              72.75754585727405,
              23.040786662910374
            ],
            [
              72.75753813266093,
              23.040776273528714
            ],
            [
              72.75753634950507,
              23.040770806041873
            ],
            [
              72.75753634950507,
              23.040757682915288
            ],
            [
              72.75753932113206,
              23.040744559787402
            ],
            [
              72.75754942268745,
              23.04068058421073
            ],
            [
              72.75755595882941,
              23.04067074206597
            ],
            [
              72.75756605948648,
              23.040664727329737
            ],
            [
              72.75758269718386,
              23.04066144633895
            ],
            [
              72.75763201559128,
              23.04064996328396
            ],
            [
              72.75777759476959,
              23.040621639623165
            ],
            [
              72.75781960448386,
              23.04059983082188
            ],
            [
              72.7578831836464,
              23.040587254924024
            ],
            [
              72.75794016737814,
              23.040582270195923
            ],
            [
              72.75793781199545,
              23.040566369490676
            ],
            [
              72.75800311322841,
              23.04055069446034
            ],
            [
              72.75803965669418,
              23.04054221876683
            ],
            [
              72.75808511324416,
              23.040531555743478
            ],
            [
              72.75809580858595,
              23.040528821995128
            ],
            [
              72.75810709861243,
              23.040519799881192
            ],
            [
              72.75811006934107,
              23.040514331557304
            ],
            [
              72.75811137638982,
              23.04050645766651
            ],
            [
              72.75810917821231,
              23.0405036693584
            ],
            [
              72.75811066312748,
              23.040493827200716
            ],
            [
              72.75807976467499,
              23.040504489400398
            ],
            [
              72.75798291011766,
              23.040527181911447
            ],
            [
              72.75793375071207,
              23.040538963399396
            ],
            [
              72.75775691645008,
              23.04059998623293
            ],
            [
              72.7576364128446,
              23.0406282007799
            ],
            [
              72.75759505710386,
              23.040632138135138
            ],
            [
              72.75757010010862,
              23.04062491978825
            ],
            [
              72.75754942268745,
              23.04060129813386
            ],
            [
              72.75754585727405,
              23.04058489482477
            ],
            [
              72.75753872644734,
              23.04052387198437
            ],
            [
              72.75753658755865,
              23.04042938444448
            ],
            [
              72.75751947465247,
              23.040309307690833
            ],
            [
              72.75752161354116,
              23.040275843807503
            ],
            [
              72.75752606649004,
              23.040162395055663
            ],
            [
              72.75753159651894,
              23.040143299269836
            ],
            [
              72.75754942268745,
              23.04012558234613
            ],
            [
              72.75757295225965,
              23.04011442825516
            ],
            [
              72.75760361355694,
              23.04010917897909
            ],
            [
              72.75765923005281,
              23.04010655434099
            ],
            [
              72.75772768167747,
              23.040105241608597
            ],
            [
              72.75776618616548,
              23.040112459156656
            ],
            [
              72.7578538904833,
              23.040129519716025
            ],
            [
              72.75794943709356,
              23.040146580273216
            ],
            [
              72.75803500162435,
              23.04015839072746
            ],
            [
              72.75814480988805,
              23.0401662646386
            ],
            [
              72.75821540129974,
              23.0401662646386
            ],
            [
              72.75824249628532,
              23.040170202007335
            ],
            [
              72.75825818356513,
              23.040176106820216
            ],
            [
              72.75827030453327,
              23.040191199100835
            ],
            [
              72.75827672209763,
              23.040207602457876
            ],
            [
              72.75827957424869,
              23.040228599545554
            ],
            [
              72.75829953930587,
              23.040424135180714
            ],
            [
              72.75834018268257,
              23.040424135180714
            ],
            [
              72.75831835541781,
              23.040304641215176
            ],
            [
              72.75831360243164,
              23.040246681011386
            ],
            [
              72.75830647160491,
              23.040204030472676
            ],
            [
              72.75830350087628,
              23.040185438953618
            ],
            [
              72.75829399400563,
              23.040171222102426
            ],
            [
              72.75827735630824,
              23.04015919258513
            ],
            [
              72.7582636893395,
              23.040150990490567
            ],
            [
              72.75824586317101,
              23.04014661664614
            ],
            [
              72.75820129864806,
              23.040143882063354
            ],
            [
              72.75815613944042,
              23.04014005463927
            ],
            [
              72.75810028489101,
              23.040137320882994
            ],
            [
              72.75801947334637,
              23.04012911878713
            ],
            [
              72.75791073497616,
              23.04011380826194
            ],
            [
              72.75777525735322,
              23.040092482973247
            ],
            [
              72.75771346134653,
              23.04007881335972
            ],
            [
              72.75765047597037,
              23.04007662602303
            ],
            [
              72.75759462142094,
              23.040080453448873
            ],
            [
              72.75753341830232,
              23.040081547117204
            ],
            [
              72.75753460677345,
              23.040041630284517
            ],
            [
              72.75754530211522,
              23.039984216388774
            ],
            [
              72.75755837529755,
              23.039949221452893
            ],
            [
              72.75761601210448,
              23.039840954753338
            ],
            [
              72.75766889592528,
              23.039758934418355
            ],
            [
              72.757659982841,
              23.039757840747416
            ],
            [
              72.75761304137585,
              23.03982126951375
            ],
            [
              72.75756372296843,
              23.039817442080544
            ],
            [
              72.75755362141307,
              23.039826190617248
            ],
            [
              72.75746033226913,
              23.039820723091886
            ],
            [
              72.75745973758438,
              23.039832205390923
            ],
            [
              72.75756609991069,
              23.039835486401874
            ],
            [
              72.75758451986556,
              23.039839313834594
            ],
            [
              72.75759046132288,
              23.039843688515646
            ],
            [
              72.7575874905942,
              23.039856811731262
            ],
            [
              72.75753104136007,
              23.039960157319687
            ],
            [
              72.75752034601832,
              23.04000991637026
            ],
            [
              72.75751499834743,
              23.040091389305
            ],
            [
              72.75749895533478,
              23.040167941926285
            ],
            [
              72.75748885377938,
              23.040271833696096
            ],
            [
              72.75731059389105,
              23.04026800627569
            ],
            [
              72.75730762316239,
              23.04029315895638
            ],
            [
              72.75749360676556,
              23.04029753362271
            ],
            [
              72.75750133137869,
              23.04037900638348
            ],
            [
              72.75750608526316,
              23.0404905536457
            ],
            [
              72.7575049938101,
              23.040531331719976
            ],
            [
              72.75750311453453,
              23.040601553570163
            ],
            [
              72.75751856376078,
              23.040604287317024
            ],
            [
              72.75751618681852,
              23.04063928290937
            ],
            [
              72.75749360676556,
              23.04064092299173
            ],
            [
              72.75749151279263,
              23.040654937263035
            ],
            [
              72.75750467760311,
              23.040656260736608
            ],
            [
              72.75750201679324,
              23.040678683732796
            ],
            [
              72.75750549147675,
              23.040678652319947
            ],
            [
              72.75751301486727,
              23.040679177245334
            ],
            [
              72.75751282711938,
              23.040680637943236
            ],
            [
              72.75750963181191,
              23.040705545030683
            ],
            [
              72.75749146787686,
              23.040740877871492
            ],
            [
              72.75741659868784,
              23.040733003993925
            ],
            [
              72.75741713228712,
              23.040726621399536
            ],
            [
              72.75741591057833,
              23.04072655196061
            ],
            [
              72.75741662294233,
              23.040715908791526
            ],
            [
              72.75739190579729,
              23.040714782888855
            ],
            [
              72.75739265499224,
              23.040700865342277
            ],
            [
              72.7572789821762,
              23.040695602862606
            ],
            [
              72.75724689525256,
              23.040676574111345
            ],
            [
              72.75721480922725,
              23.040673949484304
            ],
            [
              72.75720910492517,
              23.040720537226868
            ],
            [
              72.75724903503956,
              23.040723161852995
            ],
            [
              72.75733531283272,
              23.04074809538552
            ],
            [
              72.75739164259092,
              23.040760562976672
            ],
            [
              72.75741374653678,
              23.040770405114866
            ],
            [
              72.75743014707894,
              23.040787464764264
            ],
            [
              72.75743513811868,
              23.04080386887535
            ],
            [
              72.75743513811868,
              23.040837988990127
            ],
            [
              72.75742586840326,
              23.040874078183684
            ],
            [
              72.7574017675025,
              23.04092534553781
            ],
            [
              72.75736611606382,
              23.04097652607392
            ],
            [
              72.75735185530867,
              23.040988773754457
            ],
            [
              72.75731810470512,
              23.04100452147921
            ],
            [
              72.75728102674178,
              23.041008458823406
            ],
            [
              72.75728074646743,
              23.04100960291
            ],
            [
              72.75727817369244,
              23.041024915813313
            ],
            [
              72.7572770418152,
              23.041024754616185
            ],
            [
              72.75726942859316,
              23.041023671701996
            ],
            [
              72.75726910969122,
              23.04102556556183
            ],
            [
              72.75726676598663,
              23.04103951696759
            ],
            [
              72.75722942391859,
              23.041034203248724
            ],
            [
              72.75723301538312,
              23.041012833466514
            ],
            [
              72.75715632441069,
              23.041000332005954
            ],
            [
              72.75710937126739,
              23.040986288011055
            ],
            [
              72.75713521130653,
              23.041004951338312
            ],
            [
              72.75713573592267,
              23.041005344824754
            ],
            [
              72.75724340799263,
              23.041090194856125
            ],
            [
              72.75728783417499,
              23.04112576732496
            ],
            [
              72.75731873981402,
              23.041141785348707
            ],
            [
              72.75732386470274,
              23.04111955338606
            ],
            [
              72.75733099463115,
              23.041087292482196
            ],
            [
              72.757345850071,
              23.041059405385504
            ],
            [
              72.7573886323364,
              23.041004179245203
            ],
            [
              72.75743200838822,
              23.040934735484985
            ],
            [
              72.75749855917772,
              23.040830844226413
            ],
            [
              72.75751816760373,
              23.04082154851048
            ],
            [
              72.75753955828728,
              23.040819362012474
            ],
            [
              72.75755560219828,
              23.040819362012474
            ],
            [
              72.75757639909541,
              23.040819362012474
            ],
            [
              72.75761799288968,
              23.040823735835055
            ],
            [
              72.75767800663887,
              23.04083685895523
            ],
            [
              72.75771662970452,
              23.04085216939824
            ],
            [
              72.75773623902884,
              23.04086583975992
            ],
            [
              72.75774515121479,
              23.04087568189042
            ],
            [
              72.75774812284175,
              23.04089208599077
            ],
            [
              72.75774336895728,
              23.040918332216503
            ],
            [
              72.75772910820211,
              23.040948405838307
            ],
            [
              72.75771306518946,
              23.0409648099298
            ],
            [
              72.75768929666536,
              23.040983947758438
            ],
            [
              72.75757818135293,
              23.04108838614232
            ],
            [
              72.75759470047268,
              23.04109604093645
            ],
            [
              72.7576888214566,
              23.041002866521534
            ],
            [
              72.75773730802403,
              23.040968309149395
            ],
            [
              72.75775109357039,
              23.040947749476217
            ],
            [
              72.757767256059,
              23.040901380875205
            ],
            [
              72.75777296036104,
              23.040882133916636
            ],
            [
              72.75777771334721,
              23.04087950929358
            ],
            [
              72.75780290749768,
              23.040882571216013
            ],
            [
              72.75790463451709,
              23.040912317491323
            ],
            [
              72.75798211870189,
              23.040932877169947
            ],
            [
              72.75803725998898,
              23.04094425025605
            ],
            [
              72.75803440783797,
              23.041019489669203
            ],
            [
              72.75802490096733,
              23.04108073052115
            ],
            [
              72.758023589427,
              23.041133602326962
            ],
            [
              72.75802846368572,
              23.0412011992464
            ],
            [
              72.75804367575675,
              23.04124538042653
            ],
            [
              72.75805437109854,
              23.041278625006598
            ],
            [
              72.75805912408468,
              23.04130355926295
            ],
            [
              72.7580586488759,
              23.041333960978882
            ],
            [
              72.75805650998723,
              23.041345990391275
            ],
            [
              72.75803543730729,
              23.04135397087088
            ],
            [
              72.75810316668644,
              23.041363018555074
            ],
            [
              72.75809622630256,
              23.041348724949685
            ],
            [
              72.75809052200049,
              23.041340719670327
            ],
            [
              72.75808652898905,
              23.041327990084724
            ],
            [
              72.75807797253597,
              23.041287439580458
            ],
            [
              72.75806898848484,
              23.041257650402162
            ],
            [
              72.75806442504319,
              23.041237834758775
            ]
          ]
        ]
      },
      "properties": {
        "road_id": "VR-004",
        "feature_type": "village_road_polygon",
        "road_type": "6",
        "width": 0.0,
        "pavement": "",
        "status": "",
        "lgd_village_code": "511638",
        "locality": "Lalpur",
        "source": "manual_visual_reference",
        "verification_status": "unverified",
        "sanitization_note": "Ownership/name fields stripped."
      }
    },
    {
      "type": "Feature",
      "id": "VR-005",
      "geometry": {
        "type": "Polygon",
        "coordinates": [
          [
            [
              72.75764040226278,
              23.040440116915015
            ],
            [
              72.75764040226278,
              23.040456302004674
            ],
            [
              72.75771123082966,
              23.04045848933519
            ],
            [
              72.75771741034049,
              23.0404633012969
            ],
            [
              72.75772691721114,
              23.04048211101459
            ],
            [
              72.75775116094404,
              23.04050966922202
            ],
            [
              72.7577639951745,
              23.040531104389828
            ],
            [
              72.75777350294348,
              23.040555163356963
            ],
            [
              72.75777540467693,
              23.04056609917452
            ],
            [
              72.75777112600123,
              23.040579659620164
            ],
            [
              72.75775691645008,
              23.04059998623293
            ],
            [
              72.75781049736351,
              23.04058149644708
            ],
            [
              72.75780528443988,
              23.0405763827606
            ],
            [
              72.75779406178705,
              23.04055526503552
            ],
            [
              72.7577779657738,
              23.040528790582226
            ],
            [
              72.75775677002468,
              23.040492764122018
            ],
            [
              72.75774367438446,
              23.04046077834433
            ],
            [
              72.75772722892657,
              23.04044794699694
            ],
            [
              72.75771900934173,
              23.04044063522808
            ],
            [
              72.75770613648368,
              23.04043860413521
            ],
            [
              72.75764040226278,
              23.040440116915015
            ]
          ]
        ]
      },
      "properties": {
        "road_id": "VR-005",
        "feature_type": "village_road_polygon",
        "road_type": "6",
        "width": 0.0,
        "pavement": "",
        "status": "",
        "lgd_village_code": "511638",
        "locality": "Lalpur",
        "source": "manual_visual_reference",
        "verification_status": "unverified",
        "sanitization_note": "Ownership/name fields stripped."
      }
    },
    {
      "type": "Feature",
      "id": "VR-006",
      "geometry": {
        "type": "Polygon",
        "coordinates": [
          [
            [
              72.75728603215455,
              23.042372586673316
            ],
            [
              72.75728571145598,
              23.042372380012388
            ],
            [
              72.75728264370929,
              23.04237520300084
            ],
            [
              72.7572828682881,
              23.042375498112666
            ],
            [
              72.75728300034045,
              23.04237563120233
            ],
            [
              72.75729440894457,
              23.042386129577604
            ],
            [
              72.75729455267502,
              23.04238625026757
            ],
            [
              72.75730632419848,
              23.042395349960994
            ],
            [
              72.75732161981283,
              23.042410704865652
            ],
            [
              72.75732954834353,
              23.042430016910636
            ],
            [
              72.75732963997167,
              23.042430210345216
            ],
            [
              72.75733249212273,
              23.042435459530818
            ],
            [
              72.75733650938868,
              23.04243361115617
            ],
            [
              72.75733370933993,
              23.04242845703451
            ],
            [
              72.75732566851981,
              23.042408871370267
            ],
            [
              72.75732551221296,
              23.04240856799209
            ],
            [
              72.75732528853247,
              23.042408273706968
            ],
            [
              72.75732522295546,
              23.04240820509556
            ],
            [
              72.75730953657394,
              23.042392457534888
            ],
            [
              72.75730932546986,
              23.042392271540095
            ],
            [
              72.75729751621714,
              23.042383142913884
            ],
            [
              72.75728617588499,
              23.042372708189944
            ],
            [
              72.75728603215455,
              23.042372586673316
            ]
          ]
        ]
      },
      "properties": {
        "road_id": "VR-006",
        "feature_type": "village_road_polygon",
        "road_type": "8",
        "width": 0.0,
        "pavement": "",
        "status": "",
        "lgd_village_code": "511638",
        "locality": "Lalpur",
        "source": "manual_visual_reference",
        "verification_status": "unverified",
        "sanitization_note": "Ownership/name fields stripped."
      }
    },
    {
      "type": "Feature",
      "id": "VR-007",
      "geometry": {
        "type": "Polygon",
        "coordinates": [
          [
            [
              72.75667701301948,
              23.042106465806913
            ],
            [
              72.75667338023246,
              23.042151135237347
            ],
            [
              72.75669043744308,
              23.042147043343906
            ],
            [
              72.75671040250026,
              23.042145293336095
            ],
            [
              72.75675461129036,
              23.042151855245287
            ],
            [
              72.75683916611479,
              23.04216639923889
            ],
            [
              72.75689656576648,
              23.04217394568124
            ],
            [
              72.75697963477745,
              23.04220183172055
            ],
            [
              72.7569881912305,
              23.042208065448992
            ],
            [
              72.75699033011922,
              23.04221823565939
            ],
            [
              72.75702134714933,
              23.042223156675334
            ],
            [
              72.7571471984257,
              23.042239560611595
            ],
            [
              72.7571860595449,
              23.04225530819009
            ],
            [
              72.75720816349079,
              23.04227302400709
            ],
            [
              72.75723264437887,
              23.042299269963763
            ],
            [
              72.7572533226984,
              23.04233054687099
            ],
            [
              72.75726354283141,
              23.042355261872004
            ],
            [
              72.75727186212927,
              23.04236925943209
            ],
            [
              72.75728264370929,
              23.04237520300084
            ],
            [
              72.75728571145598,
              23.042372380012388
            ],
            [
              72.75728802371951,
              23.042358323760876
            ],
            [
              72.7572851715685,
              23.042334702410475
            ],
            [
              72.75727613990665,
              23.04231720483564
            ],
            [
              72.75725997741803,
              23.042289208876525
            ],
            [
              72.75723193111655,
              23.042252901827965
            ],
            [
              72.75720911390835,
              23.042235842364143
            ],
            [
              72.75718344454909,
              23.042224031265405
            ],
            [
              72.75715207088778,
              23.04221747018639
            ],
            [
              72.75711404250687,
              23.04221178369718
            ],
            [
              72.75705937642856,
              23.04220215989853
            ],
            [
              72.75698474439477,
              23.042185537723487
            ],
            [
              72.75691629277011,
              23.042160603630396
            ],
            [
              72.75679792805333,
              23.042140044139146
            ],
            [
              72.75671901824215,
              23.042126483850584
            ],
            [
              72.75669287367414,
              23.04211598545507
            ],
            [
              72.75667701301948,
              23.042106465806913
            ]
          ]
        ]
      },
      "properties": {
        "road_id": "VR-007",
        "feature_type": "village_road_polygon",
        "road_type": "6",
        "width": 0.0,
        "pavement": "",
        "status": "",
        "lgd_village_code": "511638",
        "locality": "Lalpur",
        "source": "manual_visual_reference",
        "verification_status": "unverified",
        "sanitization_note": "Ownership/name fields stripped."
      }
    },
    {
      "type": "Feature",
      "id": "VR-008",
      "geometry": {
        "type": "Polygon",
        "coordinates": [
          [
            [
              72.75691548518469,
              23.04136414114573
            ],
            [
              72.7568907123441,
              23.041370404672357
            ],
            [
              72.75685577326942,
              23.041368435592236
            ],
            [
              72.75677591304066,
              23.041350719656283
            ],
            [
              72.75674810479275,
              23.041328410023002
            ],
            [
              72.75671673113146,
              23.041292321777824
            ],
            [
              72.75671459224276,
              23.04131200680247
            ],
            [
              72.75670603578968,
              23.041315286950752
            ],
            [
              72.75669248739855,
              23.0413205361798
            ],
            [
              72.75668036643042,
              23.041317911565287
            ],
            [
              72.75660478397907,
              23.041289040802354
            ],
            [
              72.75659836641466,
              23.0412975710078
            ],
            [
              72.75662474903625,
              23.041308725827435
            ],
            [
              72.75664471409341,
              23.041319224285875
            ],
            [
              72.75666254026191,
              23.041329066383245
            ],
            [
              72.75670746141604,
              23.041340221200297
            ],
            [
              72.75672243543349,
              23.0413474386822
            ],
            [
              72.7567452526417,
              23.04135859349773
            ],
            [
              72.75676735658762,
              23.041366467338733
            ],
            [
              72.75679373920916,
              23.04137368481921
            ],
            [
              72.75682154745711,
              23.041382871379273
            ],
            [
              72.75684080015027,
              23.04138549599254
            ],
            [
              72.75686432972252,
              23.041390745218852
            ],
            [
              72.75687217381156,
              23.04139796269807
            ],
            [
              72.75687787811363,
              23.041408461149537
            ],
            [
              72.75688139322135,
              23.04142326065813
            ],
            [
              72.75691548518469,
              23.04136414114573
            ]
          ]
        ]
      },
      "properties": {
        "road_id": "VR-008",
        "feature_type": "village_road_polygon",
        "road_type": "6",
        "width": 0.0,
        "pavement": "",
        "status": "",
        "lgd_village_code": "511638",
        "locality": "Lalpur",
        "source": "manual_visual_reference",
        "verification_status": "unverified",
        "sanitization_note": "Ownership/name fields stripped."
      }
    },
    {
      "type": "Feature",
      "id": "VR-009",
      "geometry": {
        "type": "Polygon",
        "coordinates": [
          [
            [
              72.75928620299986,
              23.04134329220543
            ],
            [
              72.75908621915299,
              23.041320903212515
            ],
            [
              72.75894921888566,
              23.04130180097768
            ],
            [
              72.75894788488743,
              23.041301662100416
            ],
            [
              72.75886945028503,
              23.04129619380827
            ],
            [
              72.75886800220081,
              23.041296147515858
            ],
            [
              72.75880908619291,
              23.041296694758408
            ],
            [
              72.7588077755509,
              23.041296750970627
            ],
            [
              72.75875073253036,
              23.04130112477771
            ],
            [
              72.75875000758992,
              23.04130119421632
            ],
            [
              72.75864008074862,
              23.041313770874147
            ],
            [
              72.75863912673776,
              23.04131390396484
            ],
            [
              72.7583853930942,
              23.041356455780825
            ],
            [
              72.75826188372577,
              23.041368844783943
            ],
            [
              72.75811857728515,
              23.04136507691349
            ],
            [
              72.75797284988481,
              23.0413456109589
            ],
            [
              72.75785792122397,
              23.041322831787454
            ],
            [
              72.75768094592647,
              23.041281031386177
            ],
            [
              72.75744553701641,
              23.04119959223694
            ],
            [
              72.7573374454332,
              23.04115147948845
            ],
            [
              72.75728783417499,
              23.04112576732496
            ],
            [
              72.75724340799263,
              23.041090194856125
            ],
            [
              72.75713573592267,
              23.041005344824754
            ],
            [
              72.75713521130653,
              23.041004951338312
            ],
            [
              72.75703300907836,
              23.04093113375957
            ],
            [
              72.75703268029496,
              23.04093090147019
            ],
            [
              72.75694533260831,
              23.04087075421204
            ],
            [
              72.7569443327834,
              23.040870112729298
            ],
            [
              72.75685335320804,
              23.04081590825494
            ],
            [
              72.75681852552448,
              23.040782841291144
            ],
            [
              72.7567949231887,
              23.04074974455971
            ],
            [
              72.75675185525907,
              23.040676454246494
            ],
            [
              72.75670835613805,
              23.040604622112145
            ],
            [
              72.75670661520304,
              23.040602287639462
            ],
            [
              72.75666020643882,
              23.04055027451962
            ],
            [
              72.75665827775589,
              23.04054844347887
            ],
            [
              72.75659707553561,
              23.040498684627195
            ],
            [
              72.7565967278876,
              23.040498409351013
            ],
            [
              72.75659501120708,
              23.040497237153822
            ],
            [
              72.75654866442662,
              23.040469349934984
            ],
            [
              72.75654781551867,
              23.040468869648162
            ],
            [
              72.75654651385983,
              23.040468242216665
            ],
            [
              72.75650254312332,
              23.040449104314764
            ],
            [
              72.75650204006674,
              23.040448894344223
            ],
            [
              72.75638617176813,
              23.040402416452928
            ],
            [
              72.75638513690893,
              23.040402036191242
            ],
            [
              72.756384735362,
              23.04040190640629
            ],
            [
              72.75608882401922,
              23.040310044241714
            ],
            [
              72.7560877954482,
              23.0403097557386
            ],
            [
              72.75589111470663,
              23.04026054404552
            ],
            [
              72.75589058739557,
              23.04026042004704
            ],
            [
              72.75571970447231,
              23.040222745161042
            ],
            [
              72.75549770561278,
              23.040167656729523
            ],
            [
              72.75528806038503,
              23.04011876903432
            ],
            [
              72.75508764534685,
              23.040069304314144
            ],
            [
              72.75486750061006,
              23.040010299113057
            ],
            [
              72.754862477231,
              23.04002617260423
            ],
            [
              72.75486770003606,
              23.04004479225163
            ],
            [
              72.75507796689796,
              23.040101147999668
            ],
            [
              72.75527899279056,
              23.040150764813085
            ],
            [
              72.75548861466211,
              23.0401996467101
            ],
            [
              72.75571059375872,
              23.040254731821896
            ],
            [
              72.75571108603549,
              23.040254846727194
            ],
            [
              72.7558819500941,
              23.040292517470917
            ],
            [
              72.75607784840304,
              23.040341534061444
            ],
            [
              72.75637251917243,
              23.040433010983
            ],
            [
              72.75648742896865,
              23.04047910446897
            ],
            [
              72.75653003336762,
              23.040497648001487
            ],
            [
              72.75657425922569,
              23.040524257205647
            ],
            [
              72.75663340879558,
              23.04057234785849
            ],
            [
              72.7566778206049,
              23.040622124042685
            ],
            [
              72.75672035673193,
              23.040692366511898
            ],
            [
              72.75676367888482,
              23.040766091636275
            ],
            [
              72.75676392322657,
              23.0407664942166
            ],
            [
              72.75676446221576,
              23.040767298550588
            ],
            [
              72.75678941831266,
              23.040802294100594
            ],
            [
              72.75679067595406,
              23.040803849862314
            ],
            [
              72.75679153833674,
              23.040804729421545
            ],
            [
              72.75682897293125,
              23.040840271379587
            ],
            [
              72.75683032489574,
              23.040841429520675
            ],
            [
              72.75683210984822,
              23.04084264304751
            ],
            [
              72.75692429316602,
              23.040897564219154
            ],
            [
              72.7569279232581,
              23.04090006401729
            ],
            [
              72.75701098598086,
              23.04095726176639
            ],
            [
              72.75711272378003,
              23.041030743710124
            ],
            [
              72.75721992872604,
              23.04111522503891
            ],
            [
              72.75726575089038,
              23.04115191430702
            ],
            [
              72.75726852219303,
              23.04115370731359
            ],
            [
              72.75732030018769,
              23.04118054371725
            ],
            [
              72.75732129372439,
              23.04118102152157
            ],
            [
              72.75743062677931,
              23.041229686462213
            ],
            [
              72.75743212786413,
              23.04123027917084
            ],
            [
              72.75766930196377,
              23.04131232836941
            ],
            [
              72.75767106894993,
              23.041312836759346
            ],
            [
              72.75784932883828,
              23.041354939704693
            ],
            [
              72.7578500124562,
              23.04135508850169
            ],
            [
              72.75796588075482,
              23.041378053663905
            ],
            [
              72.75796654371152,
              23.041378173528134
            ],
            [
              72.75796708270067,
              23.041378252886496
            ],
            [
              72.7581144441365,
              23.041397937898587
            ],
            [
              72.75811651205828,
              23.04139810240186
            ],
            [
              72.7582620912366,
              23.041401929790172
            ],
            [
              72.75826260417465,
              23.041401936403386
            ],
            [
              72.75826455082385,
              23.041401839685363
            ],
            [
              72.75838992689143,
              23.041389263035754
            ],
            [
              72.75839115039686,
              23.041389101012395
            ],
            [
              72.75864501878773,
              23.041346526060533
            ],
            [
              72.7587540796531,
              23.041334049430436
            ],
            [
              72.75881010578075,
              23.041329752502893
            ],
            [
              72.75886750453415,
              23.041329219313525
            ],
            [
              72.75894450093377,
              23.041334586753027
            ],
            [
              72.75908109606091,
              23.041353631944357
            ],
            [
              72.75908161798209,
              23.041353697249694
            ],
            [
              72.75928144821707,
              23.04137606970416
            ],
            [
              72.75944279372693,
              23.041401178365568
            ],
            [
              72.7597293230649,
              23.04144166022368
            ],
            [
              72.75985243358132,
              23.041459171965275
            ],
            [
              72.76001688007554,
              23.04148047885134
            ],
            [
              72.76023390945493,
              23.04151473105861
            ],
            [
              72.76024793125819,
              23.04148339526986
            ],
            [
              72.76002268858217,
              23.041447846868294
            ],
            [
              72.76002215677951,
              23.04144777081655
            ],
            [
              72.75985768333585,
              23.041426461445337
            ],
            [
              72.75973479470328,
              23.041408979458886
            ],
            [
              72.75944851599527,
              23.041368534790212
            ],
            [
              72.7592870285516,
              23.04134340297654
            ],
            [
              72.75928620299986,
              23.04134329220543
            ]
          ]
        ]
      },
      "properties": {
        "road_id": "VR-009",
        "feature_type": "village_road_polygon",
        "road_type": "6",
        "width": 0.0,
        "pavement": "",
        "status": "",
        "lgd_village_code": "511638",
        "locality": "Lalpur",
        "source": "manual_visual_reference",
        "verification_status": "unverified",
        "sanitization_note": "Ownership/name fields stripped."
      }
    },
    {
      "type": "Feature",
      "id": "VR-010",
      "geometry": {
        "type": "Polygon",
        "coordinates": [
          [
            [
              72.75691478899034,
              23.039447633813094
            ],
            [
              72.75646783491565,
              23.03937106176926
            ],
            [
              72.7564589083567,
              23.03941578005314
            ],
            [
              72.75690586153306,
              23.03949235124488
            ],
            [
              72.75690645442113,
              23.039492400844576
            ],
            [
              72.75691478899034,
              23.039447633813094
            ]
          ]
        ]
      },
      "properties": {
        "road_id": "VR-010",
        "feature_type": "village_road_polygon",
        "road_type": "5",
        "width": 0.0,
        "pavement": "",
        "status": "",
        "lgd_village_code": "511638",
        "locality": "Lalpur",
        "source": "manual_visual_reference",
        "verification_status": "unverified",
        "sanitization_note": "Ownership/name fields stripped."
      }
    },
    {
      "type": "Feature",
      "id": "VR-011",
      "geometry": {
        "type": "Polygon",
        "coordinates": [
          [
            [
              72.75613724231471,
              23.039270727261595
            ],
            [
              72.75606743153904,
              23.03925504629386
            ],
            [
              72.75598581779883,
              23.03952498535493
            ],
            [
              72.75598561028801,
              23.039525703723545
            ],
            [
              72.75579815344777,
              23.040204419001487
            ],
            [
              72.75576422318116,
              23.040232560058854
            ],
            [
              72.7557888801391,
              23.04023799615456
            ],
            [
              72.75585877355977,
              23.040253405864437
            ],
            [
              72.75588373145332,
              23.040258908091854
            ],
            [
              72.75586862268854,
              23.040217747192926
            ],
            [
              72.75605516145055,
              23.039542354333307
            ],
            [
              72.75613705277019,
              23.03927149771131
            ],
            [
              72.75613724231471,
              23.039270727261595
            ]
          ]
        ]
      },
      "properties": {
        "road_id": "VR-011",
        "feature_type": "village_road_polygon",
        "road_type": "5",
        "width": 0.0,
        "pavement": "",
        "status": "",
        "lgd_village_code": "511638",
        "locality": "Lalpur",
        "source": "manual_visual_reference",
        "verification_status": "unverified",
        "sanitization_note": "Ownership/name fields stripped."
      }
    },
    {
      "type": "Feature",
      "id": "VR-012",
      "geometry": {
        "type": "Polygon",
        "coordinates": [
          [
            [
              72.75522806280553,
              23.040138194659963
            ],
            [
              72.75522356853418,
              23.040137085285618
            ],
            [
              72.7552042619421,
              23.040167664169438
            ],
            [
              72.75520415863582,
              23.04016784934067
            ],
            [
              72.75518752093845,
              23.04020175055242
            ],
            [
              72.75518745715806,
              23.04020189439075
            ],
            [
              72.75518744009007,
              23.040201939856896
            ],
            [
              72.75517258195528,
              23.040242411328855
            ],
            [
              72.75515148502082,
              23.040301473467558
            ],
            [
              72.75515146795284,
              23.04030152306696
            ],
            [
              72.75513839566881,
              23.040341438996002
            ],
            [
              72.75513837321095,
              23.040341513395052
            ],
            [
              72.75512767786917,
              23.04037924280712
            ],
            [
              72.75512764822477,
              23.040379359365595
            ],
            [
              72.75512319168264,
              23.040399864566265
            ],
            [
              72.75512318269946,
              23.04039991085901
            ],
            [
              72.75512315036013,
              23.040400185308755
            ],
            [
              72.75512255567543,
              23.040413582093258
            ],
            [
              72.7551225538788,
              23.040413666412128
            ],
            [
              72.75512257364173,
              23.040413935075275
            ],
            [
              72.75512494968565,
              23.04043061202822
            ],
            [
              72.755124964957,
              23.04043070213368
            ],
            [
              72.7551250709582,
              23.04043106255556
            ],
            [
              72.75513012667663,
              23.040443377244788
            ],
            [
              72.75513028208516,
              23.040443679800752
            ],
            [
              72.75513032340766,
              23.04044374179989
            ],
            [
              72.75513775067843,
              23.040454677626546
            ],
            [
              72.75513793483307,
              23.040454910743403
            ],
            [
              72.7551381423439,
              23.040455110794035
            ],
            [
              72.75515478004127,
              23.040469053992336
            ],
            [
              72.75515484921155,
              23.040469109378233
            ],
            [
              72.75515516991011,
              23.040469316042113
            ],
            [
              72.75515525435173,
              23.040469358201513
            ],
            [
              72.75518318207563,
              23.04048275497913
            ],
            [
              72.75518344438369,
              23.040482861617686
            ],
            [
              72.75522058522911,
              23.040495440005227
            ],
            [
              72.75522073075618,
              23.04049548299129
            ],
            [
              72.75527183142114,
              23.04050915338919
            ],
            [
              72.7552720290505,
              23.040509197201917
            ],
            [
              72.75534984381534,
              23.040523136261296
            ],
            [
              72.75539307523839,
              23.04053185581927
            ],
            [
              72.75542722649054,
              23.040542422123952
            ],
            [
              72.75544780599537,
              23.04055297272139
            ],
            [
              72.75544929091053,
              23.040553801029635
            ],
            [
              72.75545162024208,
              23.04055026707973
            ],
            [
              72.75545010029263,
              23.040549418931732
            ],
            [
              72.75545004369874,
              23.04054938834551
            ],
            [
              72.75542923153026,
              23.040538717882853
            ],
            [
              72.75542890634014,
              23.04053858148474
            ],
            [
              72.75542885423785,
              23.040538564951667
            ],
            [
              72.75539439037196,
              23.040527901928023
            ],
            [
              72.75539415591169,
              23.040527842408864
            ],
            [
              72.75535077896154,
              23.040519093917716
            ],
            [
              72.75535072775759,
              23.040519083997832
            ],
            [
              72.7552729875529,
              23.04050515816451
            ],
            [
              72.75522205936448,
              23.040491534885547
            ],
            [
              72.75518513052148,
              23.04047902841668
            ],
            [
              72.75515758907319,
              23.040465817636196
            ],
            [
              72.75514139514355,
              23.04045224643258
            ],
            [
              72.75513424994378,
              23.0404417247602
            ],
            [
              72.75512936939684,
              23.04042983745181
            ],
            [
              72.7551270517434,
              23.040413573000027
            ],
            [
              72.75512763115675,
              23.0404005159711
            ],
            [
              72.75513204008817,
              23.04038022818108
            ],
            [
              72.7551427084805,
              23.040342594661382
            ],
            [
              72.75515576100157,
              23.040302739905286
            ],
            [
              72.75517684356299,
              23.0402437182733
            ],
            [
              72.75519165947695,
              23.040203359227117
            ],
            [
              72.75520820464786,
              23.040169646493627
            ],
            [
              72.75522806280553,
              23.040138194659963
            ]
          ]
        ]
      },
      "properties": {
        "road_id": "VR-012",
        "feature_type": "village_road_polygon",
        "road_type": "8",
        "width": 0.0,
        "pavement": "",
        "status": "",
        "lgd_village_code": "511638",
        "locality": "Lalpur",
        "source": "manual_visual_reference",
        "verification_status": "unverified",
        "sanitization_note": "Ownership/name fields stripped."
      }
    },
    {
      "type": "Feature",
      "id": "VR-013",
      "geometry": {
        "type": "Polygon",
        "coordinates": [
          [
            [
              72.75545004369874,
              23.04054938834551
            ],
            [
              72.75545045512715,
              23.040552034468025
            ],
            [
              72.75544911394245,
              23.04056394821858
            ],
            [
              72.75546384990636,
              23.040572697533452
            ],
            [
              72.75551091084748,
              23.040602005750234
            ],
            [
              72.7555365802067,
              23.040625627404495
            ],
            [
              72.7555598726237,
              23.040654935609734
            ],
            [
              72.75557651032109,
              23.040699554268976
            ],
            [
              72.75558982065864,
              23.040731487910808
            ],
            [
              72.75560122926275,
              23.0407708572944
            ],
            [
              72.7556002779469,
              23.040809789366865
            ],
            [
              72.75561834216892,
              23.040814163189747
            ],
            [
              72.75562642341322,
              23.040762983418603
            ],
            [
              72.75562689862201,
              23.04074898486495
            ],
            [
              72.75562166952874,
              23.040726238658774
            ],
            [
              72.75560740877361,
              23.04069430501573
            ],
            [
              72.75558791892519,
              23.040648374454296
            ],
            [
              72.75556462650819,
              23.040614691591735
            ],
            [
              72.75553325284689,
              23.040586257978422
            ],
            [
              72.75549760050993,
              23.040567885575662
            ],
            [
              72.7554662268486,
              23.04055344970129
            ],
            [
              72.75545004369874,
              23.04054938834551
            ]
          ]
        ]
      },
      "properties": {
        "road_id": "VR-013",
        "feature_type": "village_road_polygon",
        "road_type": "6",
        "width": 0.0,
        "pavement": "",
        "status": "",
        "lgd_village_code": "511638",
        "locality": "Lalpur",
        "source": "manual_visual_reference",
        "verification_status": "unverified",
        "sanitization_note": "Ownership/name fields stripped."
      }
    },
    {
      "type": "Feature",
      "id": "VR-014",
      "geometry": {
        "type": "Polygon",
        "coordinates": [
          [
            [
              72.75588734896897,
              23.04194079604568
            ],
            [
              72.75588770021024,
              23.041940646422656
            ],
            [
              72.75591003771808,
              23.04192883777797
            ],
            [
              72.75593738872355,
              23.04191451777994
            ],
            [
              72.75594979805089,
              23.04191102106483
            ],
            [
              72.75596310479519,
              23.041909352065314
            ],
            [
              72.75597196667546,
              23.041910119193385
            ],
            [
              72.75598831242037,
              23.041917106837033
            ],
            [
              72.7559884911851,
              23.04191717462202
            ],
            [
              72.75598864928862,
              23.041917221740896
            ],
            [
              72.75600718871945,
              23.04192203365047
            ],
            [
              72.75600740790837,
              23.04192207994269
            ],
            [
              72.75600779777722,
              23.041922111355262
            ],
            [
              72.75600793791439,
              23.041922107222028
            ],
            [
              72.75602314908708,
              23.041921232629985
            ],
            [
              72.75602339971708,
              23.041921205350647
            ],
            [
              72.75602367370323,
              23.041921144178787
            ],
            [
              72.75604363876042,
              23.041915457677092
            ],
            [
              72.75604374296498,
              23.041915425437885
            ],
            [
              72.75604411756247,
              23.041915261761872
            ],
            [
              72.75606217908958,
              23.041905202299237
            ],
            [
              72.75608406743979,
              23.04189363172571
            ],
            [
              72.75612252162213,
              23.041890611158564
            ],
            [
              72.75612652182011,
              23.0418903920972
            ],
            [
              72.75612874515042,
              23.04189067729031
            ],
            [
              72.75612970814441,
              23.0418910377083
            ],
            [
              72.75613009980988,
              23.041891562628955
            ],
            [
              72.75613009980988,
              23.041892415728373
            ],
            [
              72.75612869843805,
              23.041895230460426
            ],
            [
              72.7561265281083,
              23.04189710281522
            ],
            [
              72.75612634395368,
              23.04189728219754
            ],
            [
              72.75612630352948,
              23.041897327663097
            ],
            [
              72.7561172709693,
              23.041907826075658
            ],
            [
              72.75611708681467,
              23.041908075722944
            ],
            [
              72.75611696823705,
              23.041908294784307
            ],
            [
              72.75610983741032,
              23.041923605105552
            ],
            [
              72.75611396606737,
              23.041925232772552
            ],
            [
              72.75612097831649,
              23.04191017623199
            ],
            [
              72.75612972161913,
              23.041900013438184
            ],
            [
              72.75613698988812,
              23.041893742496363
            ],
            [
              72.75614643567334,
              23.041889085168695
            ],
            [
              72.75614970643926,
              23.04188747320754
            ],
            [
              72.75617005777204,
              23.041884493972635
            ],
            [
              72.75620553224259,
              23.04188492961546
            ],
            [
              72.75620565441349,
              23.041884927135545
            ],
            [
              72.75624545876371,
              23.04188318291082
            ],
            [
              72.75629667081974,
              23.04188623737064
            ],
            [
              72.7562967372951,
              23.041886240677247
            ],
            [
              72.75635072424703,
              23.041887983248607
            ],
            [
              72.75637857022421,
              23.041893629245756
            ],
            [
              72.75637866364897,
              23.041893646605363
            ],
            [
              72.75637886038005,
              23.04189367057808
            ],
            [
              72.75641736486807,
              23.041896732477475
            ],
            [
              72.75641756788731,
              23.041896739917302
            ],
            [
              72.75646935127186,
              23.04189630262121
            ],
            [
              72.75657381186467,
              23.041898924744494
            ],
            [
              72.75668385369035,
              23.04190871637408
            ],
            [
              72.75668514546774,
              23.041904678205285
            ],
            [
              72.75657416759752,
              23.04189480391073
            ],
            [
              72.75657401218899,
              23.041894794817612
            ],
            [
              72.75646943301855,
              23.041892170214297
            ],
            [
              72.75646936205166,
              23.04189216938767
            ],
            [
              72.75641764424412,
              23.041892605857136
            ],
            [
              72.75637939308099,
              23.041889563797163
            ],
            [
              72.75635149050994,
              23.041883906226765
            ],
            [
              72.75635139708518,
              23.041883889693832
            ],
            [
              72.75635108626808,
              23.0418838591079
            ],
            [
              72.75629692863625,
              23.04188211074997
            ],
            [
              72.75624562315542,
              23.041879050503535
            ],
            [
              72.75624547762835,
              23.04187904637029
            ],
            [
              72.75624537072882,
              23.041879048850245
            ],
            [
              72.7562055088864,
              23.04188079555494
            ],
            [
              72.75616991044832,
              23.04188035908542
            ],
            [
              72.75616954303737,
              23.041880384711444
            ],
            [
              72.75615221992544,
              23.0418829208638
            ],
            [
              72.75613045464439,
              23.041886036495484
            ],
            [
              72.75612222607641,
              23.041886486191338
            ],
            [
              72.75612216858424,
              23.041886490324544
            ],
            [
              72.75608318888742,
              23.04188955222409
            ],
            [
              72.75608299035973,
              23.041889576196862
            ],
            [
              72.75608261216901,
              23.041889669607958
            ],
            [
              72.75608226182605,
              23.041889819230985
            ],
            [
              72.7560599171317,
              23.041901631185684
            ],
            [
              72.75605987491085,
              23.041901654331813
            ],
            [
              72.75604204694572,
              23.04191158401119
            ],
            [
              72.75602260201308,
              23.0419171225433
            ],
            [
              72.756008039424,
              23.041917959936274
            ],
            [
              72.7559900416773,
              23.041913288556472
            ],
            [
              72.7559657215876,
              23.041902895955097
            ],
            [
              72.75596536675307,
              23.041902743852116
            ],
            [
              72.75592983479032,
              23.041887550085697
            ],
            [
              72.75592776507192,
              23.04189121378405
            ],
            [
              72.75592794204002,
              23.04189129810199
            ],
            [
              72.75595030110743,
              23.041900856617772
            ],
            [
              72.755951268593,
              23.041902397487156
            ],
            [
              72.75595062629759,
              23.041903577938577
            ],
            [
              72.75594791697867,
              23.041905547010895
            ],
            [
              72.75593572594195,
              23.04191066643344
            ],
            [
              72.75593538368383,
              23.041910811923245
            ],
            [
              72.75590780809956,
              23.041925249305486
            ],
            [
              72.75588565744127,
              23.04193695957957
            ],
            [
              72.75587363618614,
              23.04194064724932
            ],
            [
              72.75586854543343,
              23.041939565995786
            ],
            [
              72.75586127446952,
              23.041934449880916
            ],
            [
              72.75585444907,
              23.04192146905091
            ],
            [
              72.75584974549116,
              23.041907617760728
            ],
            [
              72.75584539045867,
              23.041908593203743
            ],
            [
              72.75584545783232,
              23.041908850290827
            ],
            [
              72.75585021171679,
              23.041922847897325
            ],
            [
              72.75585024495446,
              23.041922938828442
            ],
            [
              72.75585033388766,
              23.041923132263747
            ],
            [
              72.7558574638161,
              23.04193669257277
            ],
            [
              72.75585754107122,
              23.041936825662823
            ],
            [
              72.75585776565002,
              23.041937120775614
            ],
            [
              72.75585804233113,
              23.04193737538272
            ],
            [
              72.75585812138287,
              23.041937434074615
            ],
            [
              72.75586620262716,
              23.04194312057539
            ],
            [
              72.75586644427398,
              23.0419432685451
            ],
            [
              72.75586679910853,
              23.04194342064803
            ],
            [
              72.75586706231492,
              23.041943492566286
            ],
            [
              72.75587324182575,
              23.041944805280767
            ],
            [
              72.75587335681011,
              23.041944826773555
            ],
            [
              72.75587374667893,
              23.041944858186138
            ],
            [
              72.75587413654776,
              23.041944826773555
            ],
            [
              72.755874456348,
              23.04194475154877
            ],
            [
              72.75588729147678,
              23.041940815058513
            ],
            [
              72.75588734896897,
              23.04194079604568
            ]
          ]
        ]
      },
      "properties": {
        "road_id": "VR-014",
        "feature_type": "village_road_polygon",
        "road_type": "8",
        "width": 0.0,
        "pavement": "",
        "status": "",
        "lgd_village_code": "511638",
        "locality": "Lalpur",
        "source": "manual_visual_reference",
        "verification_status": "unverified",
        "sanitization_note": "Ownership/name fields stripped."
      }
    },
    {
      "type": "Feature",
      "id": "VR-015",
      "geometry": {
        "type": "Polygon",
        "coordinates": [
          [
            [
              72.75705108767345,
              23.041168142297018
            ],
            [
              72.75706035738887,
              23.041154363674686
            ],
            [
              72.75707960918372,
              23.041143865203395
            ],
            [
              72.75709743535222,
              23.04113861596748
            ],
            [
              72.75711597388472,
              23.04113795960628
            ],
            [
              72.75714877407071,
              23.04114255248113
            ],
            [
              72.75719868716284,
              23.041143208842264
            ],
            [
              72.75725207943006,
              23.041140967790522
            ],
            [
              72.75713236005384,
              23.041046218634808
            ],
            [
              72.75711240936967,
              23.041094652988388
            ],
            [
              72.7570881656368,
              23.04111433804188
            ],
            [
              72.75706107065119,
              23.041135991349407
            ],
            [
              72.75702969698989,
              23.04115305095251
            ],
            [
              72.75701971401215,
              23.041150426334738
            ],
            [
              72.75695696668956,
              23.04113795960628
            ],
            [
              72.75695554016491,
              23.041158300187902
            ],
            [
              72.75693771489469,
              23.04115501920913
            ],
            [
              72.75693399586942,
              23.04117555074455
            ],
            [
              72.75693404976835,
              23.041178659779384
            ],
            [
              72.75699689680394,
              23.041180609849313
            ],
            [
              72.75700759214573,
              23.04118848370071
            ],
            [
              72.75701971401215,
              23.0412094806355
            ],
            [
              72.75702042727448,
              23.041226540229292
            ],
            [
              72.75701614859881,
              23.041239663310193
            ],
            [
              72.75701044429674,
              23.041248849879402
            ],
            [
              72.75699333139056,
              23.041254755471673
            ],
            [
              72.75697575046213,
              23.041259635190276
            ],
            [
              72.75700352277747,
              23.041273198046067
            ],
            [
              72.75704324448272,
              23.041258691981927
            ],
            [
              72.75703468802963,
              23.04124097603157
            ],
            [
              72.75704823552242,
              23.04123113392775
            ],
            [
              72.75705180093578,
              23.041221947357304
            ],
            [
              72.75705108767345,
              23.041206199658
            ],
            [
              72.75704894878476,
              23.04117929712739
            ],
            [
              72.75705108767345,
              23.041168142297018
            ]
          ]
        ]
      },
      "properties": {
        "road_id": "VR-015",
        "feature_type": "village_road_polygon",
        "road_type": "6",
        "width": 0.0,
        "pavement": "",
        "status": "",
        "lgd_village_code": "511638",
        "locality": "Lalpur",
        "source": "manual_visual_reference",
        "verification_status": "unverified",
        "sanitization_note": "Ownership/name fields stripped."
      }
    },
    {
      "type": "Feature",
      "id": "VR-016",
      "geometry": {
        "type": "Polygon",
        "coordinates": [
          [
            [
              72.75651045099276,
              23.041410208686962
            ],
            [
              72.75651391040492,
              23.041412844872763
            ],
            [
              72.75653958874732,
              23.041384183272573
            ],
            [
              72.7565600308099,
              23.041361215631472
            ],
            [
              72.75656006404756,
              23.041361177605573
            ],
            [
              72.75658118613484,
              23.041336281385803
            ],
            [
              72.75659114216315,
              23.04132559114587
            ],
            [
              72.75659128230032,
              23.041325423335877
            ],
            [
              72.75659698660239,
              23.041317768554816
            ],
            [
              72.75659707912887,
              23.041317632984153
            ],
            [
              72.75659717704521,
              23.04131745773432
            ],
            [
              72.75660216988157,
              23.0413073940938
            ],
            [
              72.75660551880095,
              23.04130059489482
            ],
            [
              72.75660143775461,
              23.041298869675526
            ],
            [
              72.75659808075038,
              23.041305682927643
            ],
            [
              72.75659317145738,
              23.041315578758272
            ],
            [
              72.75658764592008,
              23.041322994637564
            ],
            [
              72.75657773480752,
              23.041333635278708
            ],
            [
              72.75657767731535,
              23.041333700584083
            ],
            [
              72.7565565399567,
              23.041358614990635
            ],
            [
              72.75653611765703,
              23.041381559485988
            ],
            [
              72.75651045099276,
              23.041410208686962
            ]
          ]
        ]
      },
      "properties": {
        "road_id": "VR-016",
        "feature_type": "village_road_polygon",
        "road_type": "8",
        "width": 0.0,
        "pavement": "",
        "status": "",
        "lgd_village_code": "511638",
        "locality": "Lalpur",
        "source": "manual_visual_reference",
        "verification_status": "unverified",
        "sanitization_note": "Ownership/name fields stripped."
      }
    },
    {
      "type": "Feature",
      "id": "VR-017",
      "geometry": {
        "type": "Polygon",
        "coordinates": [
          [
            [
              72.75726852219303,
              23.04115370731359
            ],
            [
              72.75729940896743,
              23.04119320718469
            ],
            [
              72.75729275424783,
              23.04124482491725
            ],
            [
              72.75728990209677,
              23.041284194150833
            ],
            [
              72.75730416285194,
              23.041287693362158
            ],
            [
              72.75729893375866,
              23.041334061830174
            ],
            [
              72.75730558847829,
              23.041351996830596
            ],
            [
              72.7573122431979,
              23.04137124372203
            ],
            [
              72.75732983221116,
              23.04135768335608
            ],
            [
              72.75733125783752,
              23.041313939510797
            ],
            [
              72.75733933908181,
              23.041303878349986
            ],
            [
              72.75733030741995,
              23.04125226146669
            ],
            [
              72.75733410998853,
              23.04122688990259
            ],
            [
              72.75731984923341,
              23.041224265286235
            ],
            [
              72.75732814876834,
              23.041184072690704
            ],
            [
              72.75732030018769,
              23.04118054371725
            ],
            [
              72.75727552186571,
              23.041157335485913
            ],
            [
              72.75726852219303,
              23.04115370731359
            ]
          ]
        ]
      },
      "properties": {
        "road_id": "VR-017",
        "feature_type": "village_road_polygon",
        "road_type": "6",
        "width": 0.0,
        "pavement": "",
        "status": "",
        "lgd_village_code": "511638",
        "locality": "Lalpur",
        "source": "manual_visual_reference",
        "verification_status": "unverified",
        "sanitization_note": "Ownership/name fields stripped."
      }
    },
    {
      "type": "Feature",
      "id": "VR-018",
      "geometry": {
        "type": "Polygon",
        "coordinates": [
          [
            [
              72.75679230819293,
              23.04168767336627
            ],
            [
              72.75676731346844,
              23.041752011362973
            ],
            [
              72.75678340588846,
              23.041751536040604
            ],
            [
              72.75682333600284,
              23.041748911434503
            ],
            [
              72.75685399730013,
              23.04174825507632
            ],
            [
              72.75696665681652,
              23.041767283676197
            ],
            [
              72.75697735305663,
              23.041731195548586
            ],
            [
              72.75684401432235,
              23.041710198695114
            ],
            [
              72.75680479747034,
              23.041698387550298
            ],
            [
              72.75679230819293,
              23.04168767336627
            ]
          ]
        ]
      },
      "properties": {
        "road_id": "VR-018",
        "feature_type": "village_road_polygon",
        "road_type": "6",
        "width": 0.0,
        "pavement": "",
        "status": "",
        "lgd_village_code": "511638",
        "locality": "Lalpur",
        "source": "manual_visual_reference",
        "verification_status": "unverified",
        "sanitization_note": "Ownership/name fields stripped."
      }
    },
    {
      "type": "Feature",
      "id": "VR-019",
      "geometry": {
        "type": "Polygon",
        "coordinates": [
          [
            [
              72.7577596212774,
              23.04129961366084
            ],
            [
              72.75775229641457,
              23.04128528615608
            ],
            [
              72.75774837526835,
              23.041270850358558
            ],
            [
              72.75774908763238,
              23.04123837125511
            ],
            [
              72.7577433833303,
              23.041210812370107
            ],
            [
              72.7577394621841,
              23.041193096413416
            ],
            [
              72.75773090573102,
              23.041179645147473
            ],
            [
              72.75771593171353,
              23.041159631922994
            ],
            [
              72.75769596665634,
              23.041144868758117
            ],
            [
              72.75767707059437,
              23.041125511889692
            ],
            [
              72.7576249638163,
              23.041066082252193
            ],
            [
              72.75761350221158,
              23.041077428047547
            ],
            [
              72.75764106252451,
              23.041107139560467
            ],
            [
              72.75766815840842,
              23.04113371392488
            ],
            [
              72.75767911515993,
              23.04114615916078
            ],
            [
              72.75770497496204,
              23.041169080546105
            ],
            [
              72.75772665130984,
              23.041190952907353
            ],
            [
              72.75773501732006,
              23.041206000435114
            ],
            [
              72.75773805991393,
              23.041220698287898
            ],
            [
              72.75773881988867,
              23.04123907060164
            ],
            [
              72.75773920077435,
              23.04125989310526
            ],
            [
              72.75773577819311,
              23.041273890779195
            ],
            [
              72.75772724509623,
              23.041291967144804
            ],
            [
              72.7577596212774,
              23.04129961366084
            ]
          ]
        ]
      },
      "properties": {
        "road_id": "VR-019",
        "feature_type": "village_road_polygon",
        "road_type": "6",
        "width": 0.0,
        "pavement": "",
        "status": "",
        "lgd_village_code": "511638",
        "locality": "Lalpur",
        "source": "manual_visual_reference",
        "verification_status": "unverified",
        "sanitization_note": "Ownership/name fields stripped."
      }
    }
  ]
}